公司代號,投資公司名稱,投資公司英文全稱,英文簡稱,產業類別,境外投資公司名稱,境外子公司名稱,地區別代號,持股比例,facility_name,facility_address,city,state,zip,latitude,longitude,icis_facility_id,npdes_id,資料來源,匹配分數,匹配英文名稱,匹配英文名稱類型,董事長,成立日期,上市日期,實收資本額(元),公司網址,住址,LOGO網址
1210,大成長城企業股份有限公司,"GREAT WALL ENTERPRISE CO., LTD.",GREATWALL,食品工業,"Dachan(USA), Inc.","Amy Food, Inc",211--美國,80.00%,AMY FOOD,3324SOUTHRICHEY,HOUSTON,TX,77017,29.67,-95.24,3600971993,TXRNEAP73,境外子公司匹配,100,AMY FOOD,境外子公司名稱,韓家宇,1960/12/28,1978/05/20,8947672220,http://www.dachan.com,台南市永康區蔦松二街三號,https://www.dachan.com/styles/images/static/logo-wb.svg
1216,統一企業股份有限公司,UNI-PRESIDENT ENTERPRISES CORP.,UNI-PRESIDENT,食品工業,President Global Corp.,"Ameripec, Inc.",211--美國,100.00%,AMERIPEC INC,6965 ARAGON CIR,BUENA PARK,CA,90620,33.86104,-118.02125,3600726609,CAZ288896,境外子公司匹配,100,AMERIPEC,境外子公司名稱,羅智先,1967/08/25,1987/12/28,56820154210,https://www.uni-president.com.tw,71001台南市永康區中正路301號,https://esg.sp88.tw/en/ogp.png
1227,佳格食品股份有限公司,STANDARD FOODS CORPORATION,SFC,食品工業,佳格食品股份有限公司,"Standard Foods, LLC.",211--美國,100.00%,STANDARD FOODS INC,1101 E WASHINGTON ST,LOUISVILLE,KY,40206,38.256111,-85.730556,2400023034,KYR000460,境外子公司匹配,100,STANDARD FOODS,境外子公司名稱,曹德風,1986/06/06,1994/04/09,9150895910,https://www.sfworldwide.com/,台北市內湖區瑞光路610號10樓,https://media.licdn.com/dms/image/v2/D560BAQHblibYEoq99Q/company-logo_200_200/company-logo_200_200/0/1685950782929/standardfoods_worldwide_logo?e=2147483647&v=beta&t=bUJ4P1mWoN1LuVNjE0-mZzwDQCbasfs9Ar8Ep0yOx0U
1301,台灣塑膠工業股份有限公司,Formosa Plastics Corporation,FPC,塑膠工業,,,211--美國,,FORMOSA PLASTICS CORP-ILLIOPLS,HIGHWAY 36 & CANTRALL ROAD,ILLIOPOLIS,IL,62539,39.846694,-89.276694,800000669,IL0042366,公司專項匹配-1301,100,Formosa Plastics Corporation,英文全稱,郭文筆,1954/11/05,1964/07/27,63657407810,http://www.fpc.com.tw,高雄市仁武區水管路100號,https://www.fpcusa.com/content/uploads/2021/04/formosa-logo-stacked.png
1301,台灣塑膠工業股份有限公司,Formosa Plastics Corporation,FPC,塑膠工業,,,211--美國,,FORMOSA PLASTICS CORPORATION,UNKNOWN,ILLIOPOLIS,IL,0,39.852779,-89.277875,800006300,ILR10C876,MOPS英文名稱匹配,100,FORMOSA PLASTICS,英文全稱,郭文筆,1954/11/05,1964/07/27,63657407810,http://www.fpc.com.tw,高雄市仁武區水管路100號,https://www.fpcusa.com/content/uploads/2021/04/formosa-logo-stacked.png
1301,台灣塑膠工業股份有限公司,Formosa Plastics Corporation,FPC,塑膠工業,,,211--美國,,FORMOSA PLASTICS CORPORATION,780 SCHOOL HOUSE ROAD,DELAWARE CITY,DE,19706,39.58748,-75.479167,2800000009,DE0000612,公司專項匹配-1301,100,Formosa Plastics Corporation,英文全稱,郭文筆,1954/11/05,1964/07/27,63657407810,http://www.fpc.com.tw,高雄市仁武區水管路100號,https://www.fpcusa.com/content/uploads/2021/04/formosa-logo-stacked.png
1301,台灣塑膠工業股份有限公司,Formosa Plastics Corporation,FPC,塑膠工業,,,211--美國,,FORMOSA PLASTICS CORPORATION - ILLIOPOLIS,19800 OLD ROUTE 36,ILLIOPOLIS,IL,62539,39.85,-89.276389,800001334,IL0001350,公司專項匹配-1301,100,Formosa Plastics Corporation,英文全稱,郭文筆,1954/11/05,1964/07/27,63657407810,http://www.fpc.com.tw,高雄市仁武區水管路100號,https://www.fpcusa.com/content/uploads/2021/04/formosa-logo-stacked.png
1301,台灣塑膠工業股份有限公司,Formosa Plastics Corporation,FPC,塑膠工業,,,211--美國,,"FORMOSA PLASTICS CORPORATION, LOUISIANA",GULF STATES ROAD,BATON ROUGE,LA,70821,30.501111,-91.185833,3411996,LA0006149,公司專項匹配-1301,100,Formosa Plastics Corporation,英文全稱,郭文筆,1954/11/05,1964/07/27,63657407810,http://www.fpc.com.tw,高雄市仁武區水管路100號,https://www.fpcusa.com/content/uploads/2021/04/formosa-logo-stacked.png
1301,台灣塑膠工業股份有限公司,Formosa Plastics Corporation,FPC,塑膠工業,,,211--美國,,FORMOSA PLASTICS USA NEW LSQA AND PDPS LAB,201 FORMOSA DRIVE,POINT COMFORT,TX,77978,28.689792,-96.551001,3601073914,TXR15979T,公司專項匹配-1301,100,Formosa Plastics Corporation,英文全稱,郭文筆,1954/11/05,1964/07/27,63657407810,http://www.fpc.com.tw,高雄市仁武區水管路100號,https://www.fpcusa.com/content/uploads/2021/04/formosa-logo-stacked.png
1301,台灣塑膠工業股份有限公司,Formosa Plastics Corporation,FPC,塑膠工業,,,211--美國,,SB CONSTRUCTION LLC - FORMOSA PLASTICS: BROOKLAWN YARD EXPANSION,BROOKLAWN DRIVE,BATON ROUGE,LA,70808,,,3601244108,LAR10N976,公司專項匹配-1301,100,Formosa Plastics Corporation,英文全稱,郭文筆,1954/11/05,1964/07/27,63657407810,http://www.fpc.com.tw,高雄市仁武區水管路100號,https://www.fpcusa.com/content/uploads/2021/04/formosa-logo-stacked.png
1303,南亞塑膠工業股份有限公司,NAN YA PLASTICS CORPORATION,NPC,塑膠工業,,,211--美國,,NAN YA PLASTICS,8989 NORTH LOOP E,HOUSTON,TX,77029-1217,29.797883,-95.270277,3600973093,TXRNEBB41,MOPS英文名稱匹配,100,NAN YA PLASTICS,英文全稱,吳嘉昭,1958/08/22,1967/11/05,79308215890,http://www.npc.com.tw,台北市內湖區南京東路六段380號(A1)7樓,https://www.texsourcing.org.tw/public/company/AL_1596099038.jpg
1303,南亞塑膠工業股份有限公司,NAN YA PLASTICS CORPORATION,NPC,塑膠工業,,,211--美國,,NAN YA PLASTICS,8989 NORTH LOOP E,HOUSTON,TX,77029-1217,29.797883,-95.270277,3601433851,TXRNEBS53,公司專項匹配-1303,100,NAN YA PLASTICS CORPORATION,英文全稱,吳嘉昭,1958/08/22,1967/11/05,79308215890,http://www.npc.com.tw,台北市內湖區南京東路六段380號(A1)7樓,https://www.texsourcing.org.tw/public/company/AL_1596099038.jpg
1303,南亞塑膠工業股份有限公司,NAN YA PLASTICS CORPORATION,NPC,塑膠工業,,,211--美國,,NAN YA PLASTICS & J-M MANUFACTURING COMPANIES,5561 NORMANDY LANE,BATCHELOR,LA,70715,30.819167,-91.663333,1600011139,LA0082279,公司專項匹配-1303,100,NAN YA PLASTICS CORPORATION,英文全稱,吳嘉昭,1958/08/22,1967/11/05,79308215890,http://www.npc.com.tw,台北市內湖區南京東路六段380號(A1)7樓,https://www.texsourcing.org.tw/public/company/AL_1596099038.jpg
1303,南亞塑膠工業股份有限公司,NAN YA PLASTICS CORPORATION,NPC,塑膠工業,,,211--美國,,"NAN YA PLASTICS CORP., AMERICA",SC,LAKE CITY,SC,29560,33.793857,-79.729856,3200002369,SCR 483.00,公司專項匹配-1303,100,NAN YA PLASTICS CORPORATION,英文全稱,吳嘉昭,1958/08/22,1967/11/05,79308215890,http://www.npc.com.tw,台北市內湖區南京東路六段380號(A1)7樓,https://www.texsourcing.org.tw/public/company/AL_1596099038.jpg
1303,南亞塑膠工業股份有限公司,NAN YA PLASTICS CORPORATION,NPC,塑膠工業,,,211--美國,,NAN YA PLASTICS CORPORATION AMERICA,140 BEULAH RD,LAKE CITY,SC,29560,33.0907843,-80.820716,3200038222,SCG250092,公司專項匹配-1303,100,NAN YA PLASTICS CORPORATION,英文全稱,吳嘉昭,1958/08/22,1967/11/05,79308215890,http://www.npc.com.tw,台北市內湖區南京東路六段380號(A1)7樓,https://www.texsourcing.org.tw/public/company/AL_1596099038.jpg
1303,南亞塑膠工業股份有限公司,NAN YA PLASTICS CORPORATION,NPC,塑膠工業,,,211--美國,,NAN YA PLASTICS CORPORATION AMERICA,140 BEULAH RD,LAKE CITY,SC,29560,33.0907843,-80.820716,3400068619,SCG646070,公司專項匹配-1303,100,NAN YA PLASTICS CORPORATION,英文全稱,吳嘉昭,1958/08/22,1967/11/05,79308215890,http://www.npc.com.tw,台北市內湖區南京東路六段380號(A1)7樓,https://www.texsourcing.org.tw/public/company/AL_1596099038.jpg
1303,南亞塑膠工業股份有限公司,NAN YA PLASTICS CORPORATION,NPC,塑膠工業,,,211--美國,,NAN YA PLASTICS CORPS,140 E BEULAH ROAD,LAKE CITY,SC,29560,33.8374043,-79.764674,3601789626,SCR10Z93M,MOPS英文名稱匹配,95,NAN YA PLASTICS,英文全稱,吳嘉昭,1958/08/22,1967/11/05,79308215890,http://www.npc.com.tw,台北市內湖區南京東路六段380號(A1)7樓,https://www.texsourcing.org.tw/public/company/AL_1596099038.jpg
1303,南亞塑膠工業股份有限公司,NAN YA PLASTICS CORPORATION,NPC,塑膠工業,,,211--美國,,WHARTON NAN YA PLASTICS USA,2081 FM 102 RD,WHARTON,TX,77488-8790,29.32,-96.12,3600969722,TXR05Q913,公司專項匹配-1303,100,NAN YA PLASTICS CORPORATION,英文全稱,吳嘉昭,1958/08/22,1967/11/05,79308215890,http://www.npc.com.tw,台北市內湖區南京東路六段380號(A1)7樓,https://www.texsourcing.org.tw/public/company/AL_1596099038.jpg
1337,亞洲塑膠再生資源控股有限公司,Asia Plastic Recycling Holding Limited,Asia Plastic,塑膠工業,,,211--美國,,ASIA PLASTICS INC,9347 RUSH ST,SOUTH EL MONTE,CA,91733,34.05184,-118.06554,3600727208,CAZ323275,MOPS英文名稱匹配,96,ASIA PLASTIC,英文簡稱,丁金山,2010/01/08,2011/08/17,2689547290,http://asia-recycle.com,高雄市苓雅區四維四路190號12樓之2,http://asia-recycle.com/template/images/index_02.gif
1402,遠東新世紀股份有限公司,Far Eastern New Century Corporation,FENC,紡織纖維,"APG Polytech USA Holdings, Inc.","APG Polytech, LLC",211--美國,100.00%,"APG POLYTECH, LLC",27610 HUNTINGTON ROAD,APPLE GROVE,WV,25502,38.6806,-82.1833,3200025465,WV0000132,境外子公司匹配,100,APG POLYTECH,境外子公司名稱,徐旭東,1954/01/13,1967/04/14,53528752270,www.fenc.com,台北市大安區敦化南路二段207號36樓,"data:image/png;base64,iVBORw0KGgoAAAANSUhEUgAAAOEAAADhCAMAAAAJbSJIAAAAyVBMVEX///8AOH/QMzoAJnezwtcAKnkAMn7K0+GVqMUALnpzjbMAM30ANH29ydoANn6lrsXo7vUALHpKa54vWZTPKjIAIHUfSorOIyza4uz99fbNGSPPLDQAI3bw9Pjs8PX66+v119gpT4zd5O1cdqNmgKr33+HwxcfNEh7USU/uvL6Bl7kAGXPqra/opafffoIQQoVJaJxVc6IAFXN/lLduh68vVI+pudDaYmflmZw4X5fcbnLzzc/XVFrE0OCPn73UP0cACW/jkJTghIhw0HDeAAAIaUlEQVR4nO2de1+iTBSAEQRFkKQwVETDS1lW2HrZTK23/f4f6sXa7TpzYHAYhn7z/Fl4eRyYmTOcM0iSQCAQCAQCgUAgEAgEAoFAIBAIBAKBQCAQsKDRqsTTavXy/p5p6LVWteOTIDS1WEphsL6rlQdF8hxUR4Gi6IZpWiUrlugQU7MVe7lYNfL+5okYVNdNVbNKpFimriizqp/394+jvJ7aBrHdm6Wh/rrb5e0A4FeDA/T+omnrMqcN6R8Finmo374hTWVWz1sGRX1Nxe8Fozts5e3zld5xl5rfHu3XY95Kn1kZOk2/PepJJW+rdxojlWoDvqJZ1bzF/tEKbPLhLwGWMuKjUy1n0YCvqGseZjmP06z8IrQw/4uxpmZyhv7DDPOe4tSyuQTfMax8W/Gqma1fhFnKU3GeveD+RB3kJlhVGAhG3U2QV49aThEFpkI/zkewZTISjMbFfCapwcGhYGKsZh69zUJlJhgphuzXqerZjvRfsResBXtLdufoCzrrsH/O8hzdY5ywFWxpjAWj/vSIqeGMvaGlsBSsJJyt7Vez9RgMK2GXpbIM+YeJmtDS9XB5V4NZHAclO9Eijxmyi/hbSZrQ6Gq1eqI586A8miYJwrqrrMXeGMX/5qZyUiZ5y8dSfOdszLIS+sqgFPeDW8qS9PfuXelxyz2WzWruFhs0mfY8xSSrEsSdGnaNvgySdcx0xtCwDdgej8d93D97MzumEQM2fU0r5iQ1Qsw9h/Nb+aLT6Vw4vy/b6COG8Nlh6WxO0yrcJxiYiPxy4jryK54r36MdR/B72/Msxd5Ygz2CWUK2YPvB9eQPuJMN6jAfvgLMIFu1v18Cvgq7yBigP3Hkz3juJerAAdyIGosVm50OXYb2CPWa74IRnXPUofA1YLOIocCvYJ6ierv2FiEoyw7yRAUDTyZzU3BCoyLHiXsXJSh7W9TBdegX1JCnCGWWQEdjLlEj/Rjpt+9urhFHg52NucxaLwIale0r1Cue0U24B3X4FfgJ2crt8aGbaV1kLIEX7KCuxEEX+IRpxnoSHDmhZ1WbDtbQvUcc7wdAZ93MPkdjB/zC2hD1imt8G3oPqBdA8TUDwzIwdURfhvfIoeKVCWryNgd6a4Uo6kwFaIgcrW4BQxll+Ah0NTkbosdjYkNoTsGlITBYeE8/whDqaX6jXlA4Q2C0cJ5RL6gqBpYmj4bSBdYQHV74DYBM5V5IYYjvatzsvy85KQzPPJzgDeMvn4gUhrhG9JDjfe6kMew/IVuxg1zHyJ00htF5ilDscHmOpjSUzuVvisi4ggfSGUrj7edx35G/xfe+32s0evUYsh8uUhpK7XvnfcXUcR/GH//p76rz4fq01G02FZj/uBzx/9K/3l503IgL+fns/c+t1SicdlVbS3QzmMtZ2wfam8ub6/P3WzP+bh7qKrgAWzDDz7SulrZNmBxXJMP6UCPVK5RhfdZMlbBSFMN60EyZNFYMw8EwfQ1fIQyPwgPy+wtg2BseVMTHv2HFPKzIjXvDo0Pzbnk3vDq4woZzw0VMvkzhDRfdw1PDuTakUiPFs+GRQiO5n2PDukGleoFfw0aJTiktv4YzStXs3BpSq+Pj1XBA5yLk2HBIbccFTg0pVoFxaggliv0IwzLJcmEhDWkWm3JpmLRIar9NlKbrtgrxi0fDRaKOVLO7U2t9V6tdHYHkm/WFNPTjy30sU9GGj3U+tmohN1zFTmcMfVblaMM9YsNRzNq2pa752tmL1LBxCg+G1pSzLa+IDWN6UoODLXa+QGo4B1efzNO4vrHd7zPOSSE1nIHDvQq2YHvz52E7mfx+eD5jaElo2AigyxDc0aN9M+k4nufJnuN2frPLvSE0rEAtaBnAB50/fawF8zrbMXAwTQgNd9BoaAOltPdfczY9F5nISB9CwyNgRgNtWIJKLEZXu1GH0BDqSjX81kGYvOKzDMXeIDSEZjT4hasxOl/T27LoUgkNoYJTBTtUoKv5GOXCERqeQIMFbrQ/w+a+ewwakZ6heYrbU+IPPm2aQWdD0xCXZ4jzk2XnNlu7PQwMx/jkftnJWE9iYniJL0GRL7K/EBkY3gCGneznbsLwC2kMgUKpH2J4ji+Uki8y1pOYGPaBvvQpYz2JzXj4hBVEF7vRhYUhZg+GCBYxIsV5qYWbl/Zxht4kW7kXCA2hhSh8bIErrGUS5jOJD9sTZIDoMpiVEhtCm1wY+Bh/gyoFc7bYTbRoQrpOAxxuhfgips33EcOR2ay2ka61QffWoCyxM/lLkOgyWcKQUqyXAvfwLR34oP6t47yfqq7MrJiP0BDcqCRmd7Kz24nrOhGuM3lmcgm+QPW+hYXeGeyN/ub+9vb2z/WG5c0ZUkNwx6CcHwuAhvj+IbRjUKRostuUNCHk94DhdCFTn3OSofAP8vv4cckmynLFlWMGuRhmN3zM7xEW3yDPGErwjAjLnoa1coWHBwOlMawl2+lZV80wWB5/ZvRt6+js+15yw0Q7R782pWl+2Y7m227gUx7z2miml/KZmyjVKT4xiU9Dmrvwc2q4o/foQE4NpdHhZXmcG/78egtpRevhXtwaUqsp4dfQP6WTsM+vobSj84Qvjg0pXYo8G9JR5NpQeqSgyLchuH3uzzCUqs1DwwzeDaW6deAknHtDabA8LJTi31DyF7HPBCq4YfQO4QGRRiEMJX8+Tf2M1mIYSlJrqKbscYpiKEmVoZ2qOrg4hnvHUooi9iIZRiPHUThVCaP/YhlGtKrHimIbyccPJoYWllRP8vHL8+PTSFMzTPw7v8HCsKlh6aZ9VlFjUL4azZZBGIb4d3+Bwa7zvV0Fz4E3j/xBqwW8+54dRyXRAoFAIBAIBAKBQCAQCAQCgUAgEAgEAoGgaPwPmYfMGTJqaOgAAAAASUVORK5CYII="
1402,遠東新世紀股份有限公司,Far Eastern New Century Corporation,FENC,紡織纖維,"APG Polytech USA Holdings, Inc.",Corpus Christi Polymers LLC,211--美國,33.33%,CORPUS CHRISTI POLYMER PLANT,7001 JOE FULTON INTERNATIONAL TRADE CORRIDOR,CITY OF CORPUS CHRISTI,TX,78409,29.94597,-95.42136,3400039570,TX0134635,境外子公司匹配,98,CORPUS CHRISTI POLYMERS,境外子公司名稱,徐旭東,1954/01/13,1967/04/14,53528752270,www.fenc.com,台北市大安區敦化南路二段207號36樓,"data:image/png;base64,iVBORw0KGgoAAAANSUhEUgAAAOEAAADhCAMAAAAJbSJIAAAAyVBMVEX///8AOH/QMzoAJnezwtcAKnkAMn7K0+GVqMUALnpzjbMAM30ANH29ydoANn6lrsXo7vUALHpKa54vWZTPKjIAIHUfSorOIyza4uz99fbNGSPPLDQAI3bw9Pjs8PX66+v119gpT4zd5O1cdqNmgKr33+HwxcfNEh7USU/uvL6Bl7kAGXPqra/opafffoIQQoVJaJxVc6IAFXN/lLduh68vVI+pudDaYmflmZw4X5fcbnLzzc/XVFrE0OCPn73UP0cACW/jkJTghIhw0HDeAAAIaUlEQVR4nO2de1+iTBSAEQRFkKQwVETDS1lW2HrZTK23/f4f6sXa7TpzYHAYhn7z/Fl4eRyYmTOcM0iSQCAQCAQCgUAgEAgEAoFAIBAIBAKBQCAQsKDRqsTTavXy/p5p6LVWteOTIDS1WEphsL6rlQdF8hxUR4Gi6IZpWiUrlugQU7MVe7lYNfL+5okYVNdNVbNKpFimriizqp/394+jvJ7aBrHdm6Wh/rrb5e0A4FeDA/T+omnrMqcN6R8Finmo374hTWVWz1sGRX1Nxe8Fozts5e3zld5xl5rfHu3XY95Kn1kZOk2/PepJJW+rdxojlWoDvqJZ1bzF/tEKbPLhLwGWMuKjUy1n0YCvqGseZjmP06z8IrQw/4uxpmZyhv7DDPOe4tSyuQTfMax8W/Gqma1fhFnKU3GeveD+RB3kJlhVGAhG3U2QV49aThEFpkI/zkewZTISjMbFfCapwcGhYGKsZh69zUJlJhgphuzXqerZjvRfsResBXtLdufoCzrrsH/O8hzdY5ywFWxpjAWj/vSIqeGMvaGlsBSsJJyt7Vez9RgMK2GXpbIM+YeJmtDS9XB5V4NZHAclO9Eijxmyi/hbSZrQ6Gq1eqI586A8miYJwrqrrMXeGMX/5qZyUiZ5y8dSfOdszLIS+sqgFPeDW8qS9PfuXelxyz2WzWruFhs0mfY8xSSrEsSdGnaNvgySdcx0xtCwDdgej8d93D97MzumEQM2fU0r5iQ1Qsw9h/Nb+aLT6Vw4vy/b6COG8Nlh6WxO0yrcJxiYiPxy4jryK54r36MdR/B72/Msxd5Ygz2CWUK2YPvB9eQPuJMN6jAfvgLMIFu1v18Cvgq7yBigP3Hkz3juJerAAdyIGosVm50OXYb2CPWa74IRnXPUofA1YLOIocCvYJ6ierv2FiEoyw7yRAUDTyZzU3BCoyLHiXsXJSh7W9TBdegX1JCnCGWWQEdjLlEj/Rjpt+9urhFHg52NucxaLwIale0r1Cue0U24B3X4FfgJ2crt8aGbaV1kLIEX7KCuxEEX+IRpxnoSHDmhZ1WbDtbQvUcc7wdAZ93MPkdjB/zC2hD1imt8G3oPqBdA8TUDwzIwdURfhvfIoeKVCWryNgd6a4Uo6kwFaIgcrW4BQxll+Ah0NTkbosdjYkNoTsGlITBYeE8/whDqaX6jXlA4Q2C0cJ5RL6gqBpYmj4bSBdYQHV74DYBM5V5IYYjvatzsvy85KQzPPJzgDeMvn4gUhrhG9JDjfe6kMew/IVuxg1zHyJ00htF5ilDscHmOpjSUzuVvisi4ggfSGUrj7edx35G/xfe+32s0evUYsh8uUhpK7XvnfcXUcR/GH//p76rz4fq01G02FZj/uBzx/9K/3l503IgL+fns/c+t1SicdlVbS3QzmMtZ2wfam8ub6/P3WzP+bh7qKrgAWzDDz7SulrZNmBxXJMP6UCPVK5RhfdZMlbBSFMN60EyZNFYMw8EwfQ1fIQyPwgPy+wtg2BseVMTHv2HFPKzIjXvDo0Pzbnk3vDq4woZzw0VMvkzhDRfdw1PDuTakUiPFs+GRQiO5n2PDukGleoFfw0aJTiktv4YzStXs3BpSq+Pj1XBA5yLk2HBIbccFTg0pVoFxaggliv0IwzLJcmEhDWkWm3JpmLRIar9NlKbrtgrxi0fDRaKOVLO7U2t9V6tdHYHkm/WFNPTjy30sU9GGj3U+tmohN1zFTmcMfVblaMM9YsNRzNq2pa752tmL1LBxCg+G1pSzLa+IDWN6UoODLXa+QGo4B1efzNO4vrHd7zPOSSE1nIHDvQq2YHvz52E7mfx+eD5jaElo2AigyxDc0aN9M+k4nufJnuN2frPLvSE0rEAtaBnAB50/fawF8zrbMXAwTQgNd9BoaAOltPdfczY9F5nISB9CwyNgRgNtWIJKLEZXu1GH0BDqSjX81kGYvOKzDMXeIDSEZjT4hasxOl/T27LoUgkNoYJTBTtUoKv5GOXCERqeQIMFbrQ/w+a+ewwakZ6heYrbU+IPPm2aQWdD0xCXZ4jzk2XnNlu7PQwMx/jkftnJWE9iYniJL0GRL7K/EBkY3gCGneznbsLwC2kMgUKpH2J4ji+Uki8y1pOYGPaBvvQpYz2JzXj4hBVEF7vRhYUhZg+GCBYxIsV5qYWbl/Zxht4kW7kXCA2hhSh8bIErrGUS5jOJD9sTZIDoMpiVEhtCm1wY+Bh/gyoFc7bYTbRoQrpOAxxuhfgips33EcOR2ay2ka61QffWoCyxM/lLkOgyWcKQUqyXAvfwLR34oP6t47yfqq7MrJiP0BDcqCRmd7Kz24nrOhGuM3lmcgm+QPW+hYXeGeyN/ub+9vb2z/WG5c0ZUkNwx6CcHwuAhvj+IbRjUKRostuUNCHk94DhdCFTn3OSofAP8vv4cckmynLFlWMGuRhmN3zM7xEW3yDPGErwjAjLnoa1coWHBwOlMawl2+lZV80wWB5/ZvRt6+js+15yw0Q7R782pWl+2Y7m227gUx7z2miml/KZmyjVKT4xiU9Dmrvwc2q4o/foQE4NpdHhZXmcG/78egtpRevhXtwaUqsp4dfQP6WTsM+vobSj84Qvjg0pXYo8G9JR5NpQeqSgyLchuH3uzzCUqs1DwwzeDaW6deAknHtDabA8LJTi31DyF7HPBCq4YfQO4QGRRiEMJX8+Tf2M1mIYSlJrqKbscYpiKEmVoZ2qOrg4hnvHUooi9iIZRiPHUThVCaP/YhlGtKrHimIbyccPJoYWllRP8vHL8+PTSFMzTPw7v8HCsKlh6aZ9VlFjUL4azZZBGIb4d3+Bwa7zvV0Fz4E3j/xBqwW8+54dRyXRAoFAIBAIBAKBQCAQCAQCgUAgEAgEAoGgaPwPmYfMGTJqaOgAAAAASUVORK5CYII="
1402,遠東新世紀股份有限公司,Far Eastern New Century Corporation,FENC,紡織纖維,"APG Polytech USA Holdings, Inc.","Phoenix Technologies International, LLC",211--美國,100.00%,"PHENIX TECHNOLOGIES, INC.",75 SPEICHER DR,ACCIDENT,MD,21520,39.6199522,-79.3207765,3400014953,MDR001523,境外子公司匹配,97,PHOENIX TECHNOLOGIES,境外子公司名稱,徐旭東,1954/01/13,1967/04/14,53528752270,www.fenc.com,台北市大安區敦化南路二段207號36樓,"data:image/png;base64,iVBORw0KGgoAAAANSUhEUgAAAOEAAADhCAMAAAAJbSJIAAAAyVBMVEX///8AOH/QMzoAJnezwtcAKnkAMn7K0+GVqMUALnpzjbMAM30ANH29ydoANn6lrsXo7vUALHpKa54vWZTPKjIAIHUfSorOIyza4uz99fbNGSPPLDQAI3bw9Pjs8PX66+v119gpT4zd5O1cdqNmgKr33+HwxcfNEh7USU/uvL6Bl7kAGXPqra/opafffoIQQoVJaJxVc6IAFXN/lLduh68vVI+pudDaYmflmZw4X5fcbnLzzc/XVFrE0OCPn73UP0cACW/jkJTghIhw0HDeAAAIaUlEQVR4nO2de1+iTBSAEQRFkKQwVETDS1lW2HrZTK23/f4f6sXa7TpzYHAYhn7z/Fl4eRyYmTOcM0iSQCAQCAQCgUAgEAgEAoFAIBAIBAKBQCAQsKDRqsTTavXy/p5p6LVWteOTIDS1WEphsL6rlQdF8hxUR4Gi6IZpWiUrlugQU7MVe7lYNfL+5okYVNdNVbNKpFimriizqp/394+jvJ7aBrHdm6Wh/rrb5e0A4FeDA/T+omnrMqcN6R8Finmo374hTWVWz1sGRX1Nxe8Fozts5e3zld5xl5rfHu3XY95Kn1kZOk2/PepJJW+rdxojlWoDvqJZ1bzF/tEKbPLhLwGWMuKjUy1n0YCvqGseZjmP06z8IrQw/4uxpmZyhv7DDPOe4tSyuQTfMax8W/Gqma1fhFnKU3GeveD+RB3kJlhVGAhG3U2QV49aThEFpkI/zkewZTISjMbFfCapwcGhYGKsZh69zUJlJhgphuzXqerZjvRfsResBXtLdufoCzrrsH/O8hzdY5ywFWxpjAWj/vSIqeGMvaGlsBSsJJyt7Vez9RgMK2GXpbIM+YeJmtDS9XB5V4NZHAclO9Eijxmyi/hbSZrQ6Gq1eqI586A8miYJwrqrrMXeGMX/5qZyUiZ5y8dSfOdszLIS+sqgFPeDW8qS9PfuXelxyz2WzWruFhs0mfY8xSSrEsSdGnaNvgySdcx0xtCwDdgej8d93D97MzumEQM2fU0r5iQ1Qsw9h/Nb+aLT6Vw4vy/b6COG8Nlh6WxO0yrcJxiYiPxy4jryK54r36MdR/B72/Msxd5Ygz2CWUK2YPvB9eQPuJMN6jAfvgLMIFu1v18Cvgq7yBigP3Hkz3juJerAAdyIGosVm50OXYb2CPWa74IRnXPUofA1YLOIocCvYJ6ierv2FiEoyw7yRAUDTyZzU3BCoyLHiXsXJSh7W9TBdegX1JCnCGWWQEdjLlEj/Rjpt+9urhFHg52NucxaLwIale0r1Cue0U24B3X4FfgJ2crt8aGbaV1kLIEX7KCuxEEX+IRpxnoSHDmhZ1WbDtbQvUcc7wdAZ93MPkdjB/zC2hD1imt8G3oPqBdA8TUDwzIwdURfhvfIoeKVCWryNgd6a4Uo6kwFaIgcrW4BQxll+Ah0NTkbosdjYkNoTsGlITBYeE8/whDqaX6jXlA4Q2C0cJ5RL6gqBpYmj4bSBdYQHV74DYBM5V5IYYjvatzsvy85KQzPPJzgDeMvn4gUhrhG9JDjfe6kMew/IVuxg1zHyJ00htF5ilDscHmOpjSUzuVvisi4ggfSGUrj7edx35G/xfe+32s0evUYsh8uUhpK7XvnfcXUcR/GH//p76rz4fq01G02FZj/uBzx/9K/3l503IgL+fns/c+t1SicdlVbS3QzmMtZ2wfam8ub6/P3WzP+bh7qKrgAWzDDz7SulrZNmBxXJMP6UCPVK5RhfdZMlbBSFMN60EyZNFYMw8EwfQ1fIQyPwgPy+wtg2BseVMTHv2HFPKzIjXvDo0Pzbnk3vDq4woZzw0VMvkzhDRfdw1PDuTakUiPFs+GRQiO5n2PDukGleoFfw0aJTiktv4YzStXs3BpSq+Pj1XBA5yLk2HBIbccFTg0pVoFxaggliv0IwzLJcmEhDWkWm3JpmLRIar9NlKbrtgrxi0fDRaKOVLO7U2t9V6tdHYHkm/WFNPTjy30sU9GGj3U+tmohN1zFTmcMfVblaMM9YsNRzNq2pa752tmL1LBxCg+G1pSzLa+IDWN6UoODLXa+QGo4B1efzNO4vrHd7zPOSSE1nIHDvQq2YHvz52E7mfx+eD5jaElo2AigyxDc0aN9M+k4nufJnuN2frPLvSE0rEAtaBnAB50/fawF8zrbMXAwTQgNd9BoaAOltPdfczY9F5nISB9CwyNgRgNtWIJKLEZXu1GH0BDqSjX81kGYvOKzDMXeIDSEZjT4hasxOl/T27LoUgkNoYJTBTtUoKv5GOXCERqeQIMFbrQ/w+a+ewwakZ6heYrbU+IPPm2aQWdD0xCXZ4jzk2XnNlu7PQwMx/jkftnJWE9iYniJL0GRL7K/EBkY3gCGneznbsLwC2kMgUKpH2J4ji+Uki8y1pOYGPaBvvQpYz2JzXj4hBVEF7vRhYUhZg+GCBYxIsV5qYWbl/Zxht4kW7kXCA2hhSh8bIErrGUS5jOJD9sTZIDoMpiVEhtCm1wY+Bh/gyoFc7bYTbRoQrpOAxxuhfgips33EcOR2ay2ka61QffWoCyxM/lLkOgyWcKQUqyXAvfwLR34oP6t47yfqq7MrJiP0BDcqCRmd7Kz24nrOhGuM3lmcgm+QPW+hYXeGeyN/ub+9vb2z/WG5c0ZUkNwx6CcHwuAhvj+IbRjUKRostuUNCHk94DhdCFTn3OSofAP8vv4cckmynLFlWMGuRhmN3zM7xEW3yDPGErwjAjLnoa1coWHBwOlMawl2+lZV80wWB5/ZvRt6+js+15yw0Q7R782pWl+2Y7m227gUx7z2miml/KZmyjVKT4xiU9Dmrvwc2q4o/foQE4NpdHhZXmcG/78egtpRevhXtwaUqsp4dfQP6WTsM+vobSj84Qvjg0pXYo8G9JR5NpQeqSgyLchuH3uzzCUqs1DwwzeDaW6deAknHtDabA8LJTi31DyF7HPBCq4YfQO4QGRRiEMJX8+Tf2M1mIYSlJrqKbscYpiKEmVoZ2qOrg4hnvHUooi9iIZRiPHUThVCaP/YhlGtKrHimIbyccPJoYWllRP8vHL8+PTSFMzTPw7v8HCsKlh6aZ9VlFjUL4azZZBGIb4d3+Bwa7zvV0Fz4E3j/xBqwW8+54dRyXRAoFAIBAIBAKBQCAQCAQCgUAgEAgEAoGgaPwPmYfMGTJqaOgAAAAASUVORK5CYII="
1439,雋揚國際股份有限公司,"ASCENT DEVELOPMENT CO., LTD.",ASCENT,建材營造,,,211--美國,,ASCENT,KINDLE CORNER AVENUE & CARRIAGE HILL DR.,LAS VEGAS,NV,89138,42.53727,-113.79496,3601132205,NVCS46759,MOPS英文名稱匹配,100,ASCENT,英文簡稱,侯嘉騏,1964/10/01,1989/05/22,920000000,https://www.ascentglobal.com.tw/,臺北市南港區經貿一路170號11樓,"data:image/png;base64,iVBORw0KGgoAAAANSUhEUgAAAOEAAADhCAMAAAAJbSJIAAAAkFBMVEU0PUTeszGBcT2RfjoyPERHSEOqjzeEdDsvOURxZj4pNkWCcjwrN0TDoTVsYj+VgTlSUEGvkzbjtjBzaT2ZgTydhTtMTEEiMkVgWkDAnzR5bD3gtjG2lzcfMUVaVkGJeDvLpjTYsDI+Q0RnX0ClijnTrDNYVEJPT0I/REPJpTMXLEWcgzppYT+SfD27mjWmjDg7NvILAAAHl0lEQVR4nO3d61riMBAG4LaMNKYFpApFKkfBldXF+7+7bSgi9JhOASc88/1CnrX03URImkmxLA6Hw+FwOBwOh8PhcDgcDofD4XA4HA6Hw+FwOJx04LdP4NIRD1giWMuznsmF4o8HEvmr4nNoQPvDMnpCCmE4uzNA+LcTIIVgea4BwvBfgG1DcW+CUIwiG9mGYuo69IXCWttIobjzPAPacNIPsEJwDBCCdGIgTuh3Xc8hLxTDyEYK4c114hAXQjhHC8W9CcJwoPooVujRF/qvCfBm2xCWC/umhRBuo9sWxqM1+6aF4u0ArCvcmcgLIVxHSCG8KxR5Ydj+AdYTgjXzLfpCOf7pozWF/mPPAKEY2jZSKKa9lg/khX4nQgph2Wq16Ldh+BFg21C6PQOEh9FafaHo9gxoQ4CFjRSKoQJSF0L4EiCFYLVaBgilmwZqC8W4Z4BQPERpoK4Q/vRMaEN/ngFqCx9MEE6+Mn1UWyhMEPqPOcBbEoplju+GhGCFz7cttMKnvD56Q0J/lP2g0BQm03rqQlCLMDihmL4BfSFM+gVNWCkE0X4wQJgswqCEcvZigFDcFQKrhP5rv09fCHJe1EerhOKu3TZAGK6Km7BKOOgbIPS7JcBSIfhO34A2hPdFCbBUKKYxkL5wsi3+I6wQynbbAOHRIkx9Yd8AoZiWA40XgliX9lHzhSeLMLcoLBmtlQuTU6cvTC3C3F4bguxU9dHCNtydO3nhd8kMQig8YdEX+iMNYL5QzlbqWeJCcSiZqS0Uo/mHAUL5Uv1HmC8Uy+1mQF0IcUfT6aO5QrnadMgLLfGm5csTyvGmQ18Ismq0VigUdzGQvnBSOVorEoJ46RggzF+E0RLKp40BQnGn68sKw36HvhDks24fNVRYtAhzM8JMycytCQGKFmFuRTjRG62ZK9SY1hcJwQjhficMRuhPhQFCyCuZ0ROKh05ogLB0EaZcKOcmCP37usCDcLIKnukLQW9anydUC1QGCP92agP3QvV/E9EXhq3affRbGKqRLHmh0Lq2litMFqioC4tLZiqFYrr7EKUuDAtLZqqE3yNZ4sK6o7WD0PPlfoMCbWHt0do+USfupJ8mtGFYUjJTKvwjYuGMvlBrESYnQSuWiK6ziogL/U8cMFqH6uy73nhL+/MQM1pLhLsJUyz0nDlpYVheMlMMHChTLHQ9x6U8aqsqmSkErgV8Cz3ng+7cYj8iqZ/gVVgHoTd+ITs/lKjRWtyEX6F1EKozbkuawrCN66P2AuBE6N3TvE5zum+5RoKub50KH0kKdUpmchP1J4djUBaCREzrd1ksD6dHWogdrdmB83Opm7IQN62PE23Do6McCyUpIYgF8qPQfj86OcLC7L5lzQSuf3SYU+GK0Cp3zr5lzTyHx8c5EYrHLRlh3r5lzSYcihLhjEy1iY+c1tvBv9Mlw5TQ+dh0SFR9Tb6QwGgzOT1SSuiN2ySEUr9kJi18g9MzSwnjHyhU7kH+vmWNBL0wdax0GzrOjMDfYVijZOa0BecifV5ZoTP49Qpa7LQ+bsKRSB8sK4yn/L9cBY0erdnRKsycVo7Q/fxdoVqEQXbShcyeVZ6w+7tC5CJMnODTzx6OnhC7CBMD+5Oc45ETQsm+5Yoscg9ISwiqLAQLDB5z+ig1IaZk5jvRS/qznqSwfN9yaY4uzegJ/cEv7AOu2LdcluNLM5pCb3V94QQ7WrOj578FxywWut7VhfjRmh0Vnk+J0Jld+Y4DxzePrZlgVriTskzotK56X4yaBc4nLdjJGa7pCJ3VNYXV+5aLhW+ZKYWm0LmiEL0Io+qC8j8KNYTe7GpC9CKMmvZm50y6wgRyFaHcoPtoUNJHK9vwakL0IsyhIoG4UG/fcn7WmUszBIUA6EUYO3jNnVIQE4ZbfB/9ypv2UhOGmvuW87Ku+vI4HeGl718q3tBd9KgioZHwsvegBV9333I2UT88SxsOZ5e8jzB6EUYJofI09ITev8sJZf2dMIcE4+qbd+oJXediwjr7ljMtuK14H60j9C50T3bw0dP6ODonoSt0Zpe5r76ss285lcDVucGstlARzy/EL8LY+5rYMwnV084F2hCsBRpYcmkGIXTVopvXk+cW1ty3fJJ0RUJjoVKduw2lh++j9maidwZ1hM6ZheJPg7fRpBCfthDkBg8MPrTeZrSF3iWEk1WDJpz7uq//e22I2Lf8kyhbkUBO2GARZleRoP1CCOF5vuERvwgTZ109pWggfDyLsMEiTPWlGYTw+J2me45eWnnz2LJEbY0pRU3hcRu+OmofUTMhct/yPouqaX1D4efYaywM+036aH5FwjmFY7fhNx7jS2bs4oqEswrHzb55vMm0Pk5BRUIzoZcSOm4T4QRb4KwSjGv1USvZQ5qqTTwIvZM29H6E4ya9VK6CCJ1gW6+P7oYoagOimwjH8WPX3e1j82fq6eSa91D9k/in5NNCCccztBCWgyd8Pmq/LjyMdtktwcF091itiloieV51enhPHo9g9wtTldE7ug1BNkmN0cz364FQSX5PqB/2xzh6PnkoxP55UP/mkkXQHA6Hw+FwOBwOh8PhcDgcDofD4XA4HA6Hw+Fwzpj/CukbGFQO5BsAAAAASUVORK5CYII="
1460,宏遠興業股份有限公司,"EVEREST TEXTILE CO.,LTD",EVEREST,紡織纖維,,,211--美國,,EVEREST,ALCOVE & 97TH,LUBBOCK,TX,79424,33.50617,-101.96805,3601409817,TXR1556IZ,MOPS英文名稱匹配,100,EVEREST,英文簡稱,席家宜,1988/02/08,1995/04/28,6946434840,https://www.everest.com.tw/tw,台南市山上區明和里256號,https://www.khopang.com/uploads/images/35b9c2e94297a96c42b5501490062aef.jpg
1460,宏遠興業股份有限公司,"EVEREST TEXTILE CO.,LTD",EVEREST,紡織纖維,,,211--美國,,"EVEREST TEXTILE USA, LLC",1331 W MAIN ST,FOREST CITY,NC,28043,35.349208,-81.898849,3600802504,NCG170425,MOPS英文名稱匹配,95,EVEREST TEXTILE,英文全稱,席家宜,1988/02/08,1995/04/28,6946434840,https://www.everest.com.tw/tw,台南市山上區明和里256號,https://www.khopang.com/uploads/images/35b9c2e94297a96c42b5501490062aef.jpg
1506,正道工業股份有限公司,"RIGHT WAY INDUSTRIAL CO.,LTD",RIGHT WAY,電機機械,,,211--美國,,RIGHT OF WAY,84771 OVERSEAS HWY,ISLAMORADA,FL,33036-3422,24.9469456,-80.6006294,3601614000,FLR20GY26,MOPS英文名稱匹配,95,RIGHT WAY,英文簡稱,謝麗雲,1965/03/13,1980/08/11,3003885010,http://www.rightway.com.tw,台南市仁德區大甲里中正西路1015號,https://www.rightway.com.tw/site/themes/default/cht/images/ogimg.jpg
1515,力山工業股份有限公司,"REXON INDUSTRIAL CORP.,LTD",REXON,電機機械,力山工業,Power Tool Specialists Inc.,211--美國,96.00%,AIR & POWER TOOL SPECIALISTS,12027 170TH ST,ARTESIA,CA,90701,33.87696,-118.07569,3601123776,CAW511595,境外子公司匹配,95,POWER TOOL SPECIALISTS,境外子公司名稱,王冠祥,1973/04/30,1995/02/04,1814735000,http://www.rexon.net,台中市大里區仁化路261號,https://images.1111.com.tw/oad/2785029.jpg
1524,耿鼎企業股份有限公司,"GORDON AUTO BODY PARTS CO., LTD",GORDON,汽車工業,,,211--美國,,GORDON FACILITY,8004 HWY 919 S,GORDON,TX,76453,32.535833,-98.395,3600966559,TXR05DE38,MOPS英文名稱匹配,100,GORDON,英文簡稱,李茂源,1986/03/13,1998/10/30,1653103970,www.gordon.com.tw,338桃園市蘆竹區內溪路48號,https://www.letsmedia.tw/eimages/2021L5_caselogo_178133_4443_534399.jpg
1524,耿鼎企業股份有限公司,"GORDON AUTO BODY PARTS CO., LTD",GORDON,汽車工業,,,211--美國,,GORDON'S,2555 SCHILLINGER ROAD NORTH,SEMMES,AL,36575,30.74357,-88.22694,3601213679,ALG180909,MOPS英文名稱匹配,95,GORDON,英文簡稱,李茂源,1986/03/13,1998/10/30,1653103970,www.gordon.com.tw,338桃園市蘆竹區內溪路48號,https://www.letsmedia.tw/eimages/2021L5_caselogo_178133_4443_534399.jpg
1528,恩德科技股份有限公司,ANDERSON INDUSTRIAL CORP.,ANDERSON,電機機械,,,211--美國,,ANDERSON,UNKNOWN,UNKNOWN,GA,0,,,400004693,GAG810122,MOPS英文名稱匹配,100,ANDERSON,英文簡稱,廖文嘉,1972/07/21,2000/09/11,1913310000,http://www.anderson.com.tw,臺北市士林區中山北路五段478號6樓,https://encrypted-tbn0.gstatic.com/images?q=tbn:ANd9GcSRmpj6b_Kwmj5FsSvrORzWlylHsmt_sJfYfg&s
1528,恩德科技股份有限公司,ANDERSON INDUSTRIAL CORP.,ANDERSON,電機機械,,,211--美國,,ANDERSON  LA,3550 TYBURN ST,LOS ANGELES,CA,90065,34.11937,-118.25248,3600735006,CAZ471711,MOPS英文名稱匹配,95,ANDERSON,英文簡稱,廖文嘉,1972/07/21,2000/09/11,1913310000,http://www.anderson.com.tw,臺北市士林區中山北路五段478號6樓,https://encrypted-tbn0.gstatic.com/images?q=tbn:ANd9GcSRmpj6b_Kwmj5FsSvrORzWlylHsmt_sJfYfg&s
1528,恩德科技股份有限公司,ANDERSON INDUSTRIAL CORP.,ANDERSON,電機機械,,,211--美國,,ANDERSON #1,"NE1/4,SW1/4, S20, T3S, R52W",NEAR ANTON,CO,80801,39.779722,-103.229167,1200006048,COG600562,MOPS英文名稱匹配,95,ANDERSON,英文簡稱,廖文嘉,1972/07/21,2000/09/11,1913310000,http://www.anderson.com.tw,臺北市士林區中山北路五段478號6樓,https://encrypted-tbn0.gstatic.com/images?q=tbn:ANd9GcSRmpj6b_Kwmj5FsSvrORzWlylHsmt_sJfYfg&s
1528,恩德科技股份有限公司,ANDERSON INDUSTRIAL CORP.,ANDERSON,電機機械,,,211--美國,,ANDERSON 85,170 ALLIANCE BLVD,WILLIAMSTON,SC,0,34.6307389,-82.58528,3601844973,SCR10ZHS7,MOPS英文名稱匹配,95,ANDERSON,英文簡稱,廖文嘉,1972/07/21,2000/09/11,1913310000,http://www.anderson.com.tw,臺北市士林區中山北路五段478號6樓,https://encrypted-tbn0.gstatic.com/images?q=tbn:ANd9GcSRmpj6b_Kwmj5FsSvrORzWlylHsmt_sJfYfg&s
1528,恩德科技股份有限公司,ANDERSON INDUSTRIAL CORP.,ANDERSON,電機機械,,,211--美國,,"ANDERSON, M",3044 DOLE ST,HOLIDAY,FL,34691-3107,28.1961917,-82.7632158,3601676299,FLG074065,MOPS英文名稱匹配,95,ANDERSON,英文簡稱,廖文嘉,1972/07/21,2000/09/11,1913310000,http://www.anderson.com.tw,臺北市士林區中山北路五段478號6樓,https://encrypted-tbn0.gstatic.com/images?q=tbn:ANd9GcSRmpj6b_Kwmj5FsSvrORzWlylHsmt_sJfYfg&s
1528,恩德科技股份有限公司,ANDERSON INDUSTRIAL CORP.,ANDERSON,電機機械,,,211--美國,,LP ANDERSON,CORNER OF 41ST WEST AND GRAND AVE,BILLINGS,MT,59101,45.7842,-108.62055,3600106709,MTR106282,MOPS英文名稱匹配,95,ANDERSON,英文簡稱,廖文嘉,1972/07/21,2000/09/11,1913310000,http://www.anderson.com.tw,臺北市士林區中山北路五段478號6樓,https://encrypted-tbn0.gstatic.com/images?q=tbn:ANd9GcSRmpj6b_Kwmj5FsSvrORzWlylHsmt_sJfYfg&s
1532,勤美股份有限公司,"CHINA METAL PRODUCTS  CO., LTD.",CMP,電機機械,,,211--美國,,METAL PRODUCTS COMPANY,UNKNOWN,MCMINNVILLE,TN,0,,,1200010484,TNR054327,MOPS英文名稱匹配,95,CHINA METAL PRODUCTS,英文全稱,林廷芳,1972/09/09,2000/09/11,4226042710,www.cmp.com.tw,台北市106大安區仁愛路四段八十五號四樓,https://encrypted-tbn0.gstatic.com/images?q=tbn:ANd9GcRzuMUp2J0KGQ5i5PoVmAfcCaJ1Bb4sV5LfjgM3FuQH7vPJhjLHsUTQ49cJCq_fTtu3mkE&usqp=CAU
1597,直得科技股份有限公司,"CHIEFTEK PRECISION Co., LTD.",cpc,電機機械,直得科技股份有限公司,"CHIEFTEK PRECISION USA CO., LTD.",211--美國,100.00%,CHIEFTEK PRECISION USA CO LTD,2280 E LOCUST CT,ONTARIO,CA,91761,34.04377,-117.60245,3600784323,CAZ491681,境外子公司匹配,100,CHIEFTEK PRECISION USA,境外子公司名稱,陳麗芬,1998/10/19,2020/12/23,892618040,http://www.chieftek.com/,74145 台南市新市區大利一路3號,https://storage.googleapis.com/www.taiwantradeshow.com.tw/exhibitor-logo/202502/T-58938544.png
1726,永記造漆工業股份有限公司,"YUNG CHI PAINT ＆ VARNISH MFG.CO.,LTD",Y.C.P.,化學工業,Yung Chi America Corp,"Continental Coatings, Inc.",211--美國,100.00%,CONTINENTAL COATING,10938 BEECH AVE,FONTANA,CA,92337,34.05496,-117.4713,3600725948,CAZ213328,境外子公司匹配,97,CONTINENTAL COATINGS,境外子公司名稱,張德仁,1957/05/29,2000/09/11,1620000000,www.rainbowpaint.com.tw,高雄市小港區沿海三路26、28號,https://lh4.googleusercontent.com/proxy/EsWHPN_uEhh90rkRtQYs-KwvL6UT-N3Rl7eupT6m870isAfyR3Za-V8nLTLXGiPieKgO5DyzEgar1jqRLiyNNjuYcgvFnysqMmkQtQOFNw
1785,光洋應用材料科技股份有限公司,Solar Applied Materials Technology Corp.,Solar,其他電子業,,,211--美國,,SOLAR INC.,"VILLAGE OF SATALA, ROUTE 1",UTULEI,AS,96799,-14.28326,-170.68025,3600882155,ASU000002,MOPS英文名稱匹配,100,SOLAR,英文簡稱,&#40644;&#21843;峰,1978/08/29,,5960222430,http://www.solartech.com.tw/tw/index.html,台南市安南區工業三路1號,https://www.solartech.com.tw/upload/base_fb_img/twL_01ns_web_base_22G12_HyI0vSqAJw.jpg
2027,大成不銹鋼工業股份有限公司,"TA CHEN STAINLESS PIPE CO., LTD.",TC,鋼鐵工業,"Primus Pipe and Tube Holdings, Inc.","Bristols Pipe and Tube, Inc.",211--美國,100.00%,"BRISTOL PIPE AND TUBE, INC.",390 BRISTOL METALS ROAD383 PETERS PRIVATE DRIVE,BRISTOL,TN,37620,36.5417,-82.1863,3600256978,TNR050509,境外子公司匹配,98,BRISTOLS PIPE AND TUBE,境外子公司名稱,謝麗雲,1986/11/27,1996/10/24,24342606150,www.tachen.com.tw,台南市仁德區新田二街125號,https://www.fastener-world.com/data/article/Ta_Chen_International_8179_0.png
2027,大成不銹鋼工業股份有限公司,"TA CHEN STAINLESS PIPE CO., LTD.",TC,鋼鐵工業,"Primus Pipe and Tube Holdings, Inc.","Primus Pipe and Tube, Inc.",211--美國,100.00%,PRIMUS PIPE AND TUBE INC,241 W CLARKE ST,WILDWOOD,FL,34785,28.8755645,-82.0392121,3600931186,FLR05I198,境外子公司匹配,100,PRIMUS PIPE AND TUBE,境外子公司名稱,謝麗雲,1986/11/27,1996/10/24,24342606150,www.tachen.com.tw,台南市仁德區新田二街125號,https://www.fastener-world.com/data/article/Ta_Chen_International_8179_0.png
2027,大成不銹鋼工業股份有限公司,"TA CHEN STAINLESS PIPE CO., LTD.",TC,鋼鐵工業,"Ta Chen International, Inc.","TCI Texarkana, Inc.",211--美國,100.00%,TCI TEXARKANA,300 ALUMAX DR,TEXARKANA,TX,75501-0209,33.451388,-94.142222,3601017070,TXR05EG03,境外子公司匹配,100,TCI TEXARKANA,境外子公司名稱,謝麗雲,1986/11/27,1996/10/24,24342606150,www.tachen.com.tw,台南市仁德區新田二街125號,https://www.fastener-world.com/data/article/Ta_Chen_International_8179_0.png
2029,盛餘股份有限公司,"SHENG YU STEEL CO., LTD.",SYSCO,鋼鐵工業,,,211--美國,,SYSCO,1 SYSCO DRIVE,JACKSON,WI,77077,43.31751,-88.188546,3601427989,WIG013451,MOPS英文名稱匹配,100,SYSCO,英文簡稱,樽宮浩一,1973/05/19,1997/01/11,3211800000,www.shengyusteel.com,高雄市小港區中林路11號,https://storage.googleapis.com/www.taiwantradeshow.com.tw/product/202409/T-05113852.png
2064,晉椿工業股份有限公司,"CAMELLIA METAL CO.,LTD.",CAMELLIA,鋼鐵工業,,,211--美國,,CAMELLIA,SIERRA MADRE DRIVE,AZUSA,CA,91702,34.14392,-117.89246,3600731285,CAZ445566,MOPS英文名稱匹配,100,CAMELLIA,英文簡稱,陳譽,1971/05/10,,693300000,http://www.camelliametal.com,50544彰化縣鹿港鎮鹿工路24號,https://www.lkccma.com/upload/20230206120517r36td1.jpg
2103,台橡股份有限公司,TSRC CORPORATION,TSRC,橡膠工業,TSRC (USA) Investment Corporation,TSRC Specialty Materials LLC,211--美國,100.00%,TSRC SPECIALTY MATERIALS LLC - PLAQUEMINE MANUFACTURING PLANT,21255 HWY 1 SOUTH,PLAQUEMINE,LA,70764,30.317028,-91.243778,3600082089,LA0126977,境外子公司匹配,95,TSRC SPECIALTY MATERIALS,境外子公司名稱,殷琪,1973/11/22,1982/09/25,8257099780,www.tsrc.com.tw,高雄市大社區興工路2號,https://encrypted-tbn0.gstatic.com/images?q=tbn:ANd9GcRQBexsLrP0NTHvfJQkfI-LuAI2zIGst1IwpQ&s
2104,國際中橡投資控股股份有限公司,"International CSRC Investment Holdings Co.,",CSRC,橡膠工業,CCC USA Corp.,Continental Carbon Company,211--美國,100.00%,CONTINENTAL CARBON,1500 EAST STATE DOCKS ROAD,PHENIX CITY,AL,36869,32.431944,-84.972778,2600022112,ALD000052,境外子公司匹配,100,CONTINENTAL CARBON,境外子公司名稱,辜公怡,1973/06/15,1986/07/15,9847336250,http://www.csrcgroup.com,台北市中山北路二段113號8樓,https://images.1111.com.tw/oad/4671.jpg
2104,國際中橡投資控股股份有限公司,"International CSRC Investment Holdings Co.,",CSRC,橡膠工業,CCC USA Corp.,Continental Carbon Company,211--美國,100.00%,CONTINENTAL CARBON SUNRAY PLANT,11702 CARBON BLACK RD,SUNRAY,TX,79086-2003,35.981055,-101.891185,3600967495,TXR05DO69,境外子公司匹配,95,CONTINENTAL CARBON,境外子公司名稱,辜公怡,1973/06/15,1986/07/15,9847336250,http://www.csrcgroup.com,台北市中山北路二段113號8樓,https://images.1111.com.tw/oad/4671.jpg
2106,建大工業股份有限公司,"KENDA RUBBER INDUSTRIAL CO., LTD",KENDA,橡膠工業,,,211--美國,,AMERICAN KENDA RUBBER INDUSTRIAL,715 S. PRAIRIE,MARSHFIELD,MO,65706,37.329465,-92.934512,3600894942,MORA12333,MOPS英文名稱匹配,95,KENDA RUBBER INDUSTRIAL,英文全稱,楊&#21843;仁,1962/03/30,1990/12/20,9548900000,http://www.kendatire.com,彰化縣員林市中山路一段一四六號,https://upload.wikimedia.org/wikipedia/commons/a/a5/Kenda_Logo.svg
2308,台達電子工業股份有限公司,"DELTA ELECTRONICS, INC.",DELTA,電子零組件業,,,211--美國,,DELTA ELECTRONICS,601 DATA DR,PLANO,TX,75075-7839,33.00822,-96.75836,3601596939,TXRNECF97,MOPS英文名稱匹配,100,DELTA ELECTRONICS,英文全稱,鄭平,1975/08/20,1988/12/19,25975433290,https://www.deltaww.com/zh-TW/index,台北市內湖區瑞光路186號,https://docs.tfai.org.tw/sites/default/files/styles/maker_photo/public/unit/%E5%8F%B0%E9%81%94Foundation%20english%20logo_01.png?itok=2iMpOs1K
2308,台達電子工業股份有限公司,"DELTA ELECTRONICS, INC.",DELTA,電子零組件業,Delta America Ltd.,Delta Electronics (Americas) Ltd.,211--美國,100.00%,DELTA ELECTRONICS AMERICAS,14910 SUMMIT DRIVE,EASTVALE,CA,92880,33.97077,-117.60452,3601123625,CAZ510817,境外子公司匹配,100,DELTA ELECTRONICS AMERICAS,境外子公司名稱,鄭平,1975/08/20,1988/12/19,25975433290,https://www.deltaww.com/zh-TW/index,台北市內湖區瑞光路186號,https://docs.tfai.org.tw/sites/default/files/styles/maker_photo/public/unit/%E5%8F%B0%E9%81%94Foundation%20english%20logo_01.png?itok=2iMpOs1K
2308,台達電子工業股份有限公司,"DELTA ELECTRONICS, INC.",DELTA,電子零組件業,,,211--美國,,DELTA ELECTRONICS CAMPUS,3400 LOTUS DR,PLANO,TX,75075-7834,33.004231,-96.755144,3601882276,TXR1554VR,MOPS英文名稱匹配,95,DELTA ELECTRONICS,英文全稱,鄭平,1975/08/20,1988/12/19,25975433290,https://www.deltaww.com/zh-TW/index,台北市內湖區瑞光路186號,https://docs.tfai.org.tw/sites/default/files/styles/maker_photo/public/unit/%E5%8F%B0%E9%81%94Foundation%20english%20logo_01.png?itok=2iMpOs1K
2308,台達電子工業股份有限公司,"Delta Electronics, Inc.",DELTA,電子零組件業,,,211--美國,,DELTA ELECTRONICS CAMPUS,3400 LOTUS DR,PLANO,TX,75075-7834,33.004231,-96.755144,3601877841,TXR1511VP,公司專項匹配-2308,100,"Delta Electronics, Inc.",英文全稱,鄭平,1975/08/20,1988/12/19,25975433290,https://www.deltaww.com/zh-TW/index,台北市內湖區瑞光路186號,https://docs.tfai.org.tw/sites/default/files/styles/maker_photo/public/unit/%E5%8F%B0%E9%81%94Foundation%20english%20logo_01.png?itok=2iMpOs1K
2308,台達電子工業股份有限公司,"Delta Electronics, Inc.",DELTA,電子零組件業,,,211--美國,,DELTA ELECTRONICS MFG. CORP.,416 CABOT STREET,BEVERLY,MA,1915,42.55983,-70.88304,3601781849,MAPIU007E,公司專項匹配-2308,100,"Delta Electronics, Inc.",英文全稱,鄭平,1975/08/20,1988/12/19,25975433290,https://www.deltaww.com/zh-TW/index,台北市內湖區瑞光路186號,https://docs.tfai.org.tw/sites/default/files/styles/maker_photo/public/unit/%E5%8F%B0%E9%81%94Foundation%20english%20logo_01.png?itok=2iMpOs1K
2308,台達電子工業股份有限公司,"DELTA ELECTRONICS, INC.",DELTA,電子零組件業,Delta International Holding Limited B.V.,DELTA ELECTRONICS HOLDING (USA) INC.,211--美國,100.00%,DELTA ELECTRONICS USA,2925 E PLANO PKWY,PLANO,TX,75074-7419,33.007482,-96.672927,3601435291,TXRNEBN23,境外子公司匹配,95,DELTA ELECTRONICS HOLDING USA,境外子公司名稱,鄭平,1975/08/20,1988/12/19,25975433290,https://www.deltaww.com/zh-TW/index,台北市內湖區瑞光路186號,https://docs.tfai.org.tw/sites/default/files/styles/maker_photo/public/unit/%E5%8F%B0%E9%81%94Foundation%20english%20logo_01.png?itok=2iMpOs1K
2308,台達電子工業股份有限公司,"Delta Electronics, Inc.",DELTA,電子零組件業,,,211--美國,,DELTA GROUP ELECTRONICS,2920 N STATE HIGHWAY 360 STE 100,GRAND PRAIRIE,TX,75050-1054,32.80179,-97.053153,3600971474,TXRNEAK39,公司專項匹配-2308,100,"Delta Electronics, Inc.",英文全稱,鄭平,1975/08/20,1988/12/19,25975433290,https://www.deltaww.com/zh-TW/index,台北市內湖區瑞光路186號,https://docs.tfai.org.tw/sites/default/files/styles/maker_photo/public/unit/%E5%8F%B0%E9%81%94Foundation%20english%20logo_01.png?itok=2iMpOs1K
2308,台達電子工業股份有限公司,"DELTA ELECTRONICS, INC.",DELTA,電子零組件業,,,211--美國,,DELTA GROUP ELECTRONICS - SITE,395 GUS HIPP BLVD,ROCKLEDGE,FL,32955,28.303056,-80.715278,2400033126,FLR10W890,MOPS英文名稱匹配,95,DELTA ELECTRONICS,英文全稱,鄭平,1975/08/20,1988/12/19,25975433290,https://www.deltaww.com/zh-TW/index,台北市內湖區瑞光路186號,https://docs.tfai.org.tw/sites/default/files/styles/maker_photo/public/unit/%E5%8F%B0%E9%81%94Foundation%20english%20logo_01.png?itok=2iMpOs1K
2308,台達電子工業股份有限公司,"Delta Electronics, Inc.",DELTA,電子零組件業,,,211--美國,,DELTA GROUP ELECTRONICS INC,4521 OSUNA RD NE,ALBUQUERQUE,NM,87109,35.1575,-106.590833,3600856895,NMNOE3692,公司專項匹配-2308,100,"Delta Electronics, Inc.",英文全稱,鄭平,1975/08/20,1988/12/19,25975433290,https://www.deltaww.com/zh-TW/index,台北市內湖區瑞光路186號,https://docs.tfai.org.tw/sites/default/files/styles/maker_photo/public/unit/%E5%8F%B0%E9%81%94Foundation%20english%20logo_01.png?itok=2iMpOs1K
2308,台達電子工業股份有限公司,"DELTA ELECTRONICS, INC.",DELTA,電子零組件業,,,211--美國,,DELTA PLANT,9705 BROADWAY AVE,CONROE,TX,77385,30.181854,-95.438256,2600011023,TXG111075,MOPS英文名稱匹配,100,DELTA,英文簡稱,鄭平,1975/08/20,1988/12/19,25975433290,https://www.deltaww.com/zh-TW/index,台北市內湖區瑞光路186號,https://docs.tfai.org.tw/sites/default/files/styles/maker_photo/public/unit/%E5%8F%B0%E9%81%94Foundation%20english%20logo_01.png?itok=2iMpOs1K
2317,鴻海精密工業股份有限公司,Foxconn,HON HAI,其他電子業,,,211--美國,,FOXCONN,12001 BRAUN ROAD,MOUNT PLEASANT,WI,53177,42.67984,-87.91903,3601370143,WIG012632,公司專項匹配-2317,100,Foxconn,英文簡稱,劉揚偉,1974/02/20,1991/06/18,138917408530,https://www.honhai.com/zh-tw,新北市土城區自由街2號,https://ntucace.ntu.edu.tw/institution/download.logo/sn/29/key/2024021518592365cdee8b00361/preview/1
2323,中環股份有限公司,CMC Magnetics Corporation,CMC,光電業,EMC Investment Holding,MFLLC,211--美國,100.00%,MFLLC,10900 DAY ROAD,CUMBERLAND,MD,21504,39.59073,-78.75711,3600010111,MDU021598,境外子公司匹配,100,MFLLC,境外子公司名稱,翁明顯,1978/12/02,1992/02/17,10893483280,http://www.cmcnet.com.tw,台北市中山區民權西路53號15樓,https://fileres.synology.com/www-res/case-study/TW_CMC/album/logo.png?v=1569482415
2323,中環股份有限公司,CMC Magnetics Corporation,CMC,光電業,F5 Holdings,Verbatim US,211--美國,100.00%,VERBATIM SITE,360PASTORIA,SUNNYVALE,CA,94086,,,3600934673,CAV162911,境外子公司匹配,95,VERBATIM US,境外子公司名稱,翁明顯,1978/12/02,1992/02/17,10893483280,http://www.cmcnet.com.tw,台北市中山區民權西路53號15樓,https://fileres.synology.com/www-res/case-study/TW_CMC/album/logo.png?v=1569482415
2327,國巨股份有限公司,YAGEO CORPORATION,YAGEO,電子零組件業,Ferroxcube International Holding B.V.,Ferroxcube USA Inc.,211--美國,100.00%,FERROXCUBE,UNKNOWN,UNKNOWN,NY,0,,,400013847,NYG995860,境外子公司匹配,95,FERROXCUBE USA,境外子公司名稱,陳泰銘,1987/09/09,1993/10/22,5182414550,WWW.YAGEO.COM,新北市新店區寶橋路233-1號3樓,https://www.tpcia.org.tw/archive/logo/15_YAGEO.png
2327,國巨股份有限公司,YAGEO CORPORATION,YAGEO,電子零組件業,KEMET Corporation,KEMET Electronics Corporation,211--美國,100.00%,KEMET ELECTRONICS CORPORATION,SC,SIMPSONVILLE,SC,29681,34.75083,-82.28327,3200002243,SCR 433.00,境外子公司匹配,100,KEMET ELECTRONICS,境外子公司名稱,陳泰銘,1987/09/09,1993/10/22,5182414550,WWW.YAGEO.COM,新北市新店區寶橋路233-1號3樓,https://www.tpcia.org.tw/archive/logo/15_YAGEO.png
2330,台灣積體電路製造股份有限公司,TSMC,TSMC,半導體業,,,211--美國,,APS - TSMC PHASE 2,5088 W INNOVATION CIR,PHOENIX,AZ,85083,33.78341,-112.15311,3601813500,AZC108221,公司專項匹配-2330,100,TSMC,英文簡稱,魏哲家,1987/02/21,1994/09/05,259326155210,https://www.tsmc.com,新竹科學園區力行六路8號,https://hocom.tw/Uploads/Album/199072_372048198094.jpg
2330,台灣積體電路製造股份有限公司,TSMC,TSMC,半導體業,,,211--美國,,APS TSMC MICROGRID,NO ADDRESS ON FILE,UNKNOWN,AZ,86001,33.77917,-112.15402,3601781893,AZC107763,公司專項匹配-2330,100,TSMC,英文簡稱,魏哲家,1987/02/21,1994/09/05,259326155210,https://www.tsmc.com,新竹科學園區力行六路8號,https://hocom.tw/Uploads/Album/199072_372048198094.jpg
2330,台灣積體電路製造股份有限公司,TSMC,TSMC,半導體業,,,211--美國,,COPNWWWW 3A - TSMC UTILITIES PROJECT,NO ADDRESS ON FILE,UNKNOWN,AZ,85345,33.77044,-112.13833,3601417540,AZCN89954,公司專項匹配-2330,100,TSMC,英文簡稱,魏哲家,1987/02/21,1994/09/05,259326155210,https://www.tsmc.com,新竹科學園區力行六路8號,https://hocom.tw/Uploads/Album/199072_372048198094.jpg
2330,台灣積體電路製造股份有限公司,TSMC,TSMC,半導體業,,,211--美國,,HPTW - FR311 - TSMC REDUNDANT FEEDS - ROUTE 1 & 2,NO ADDRESS ON FILE,UNKNOWN,AZ,85260,33.79787,-112.16961,3601417882,AZCN91165,公司專項匹配-2330,100,TSMC,英文簡稱,魏哲家,1987/02/21,1994/09/05,259326155210,https://www.tsmc.com,新竹科學園區力行六路8號,https://hocom.tw/Uploads/Album/199072_372048198094.jpg
2330,台灣積體電路製造股份有限公司,"Taiwan Semiconductor Manufacturing Co., Ltd.",TSMC,半導體業,,,211--美國,,TAIWAN SEMICONDUCTOR MANUFACTURING COMPANY,,,,,,,3601417145,AZCN88224,MOPS英文名稱匹配,95,TAIWAN ASIA SEMICONDUCTOR,英文全稱,魏哲家,1987/02/21,1994/09/05,259326155210,https://www.tsmc.com,新竹科學園區力行六路8號,https://hocom.tw/Uploads/Album/199072_372048198094.jpg
2330,台灣積體電路製造股份有限公司,"Taiwan Semiconductor Manufacturing Co., Ltd.",TSMC,半導體業,,,211--美國,,TAIWAN SEMICONDUCTOR MANUFACTURING COMPANY,5088 W INNOVATION CIR,PHOENIX,AZ,85083,33.7729,-112.16651,3601487739,AZMS97089,公司專項匹配-2330,100,"Taiwan Semiconductor Manufacturing Co., Ltd.",英文全稱,魏哲家,1987/02/21,1994/09/05,259326155210,https://www.tsmc.com,新竹科學園區力行六路8號,https://hocom.tw/Uploads/Album/199072_372048198094.jpg
2330,台灣積體電路製造股份有限公司,"Taiwan Semiconductor Manufacturing Co., Ltd.",TSMC,半導體業,,,211--美國,,TAIWAN SEMICONDUCTOR MANUFACTURING COMPANY,5088 W INNOVATION CIR,PHOENIX,AZ,85083,33.7729,-112.16651,3601833672,AZC109427,公司專項匹配-2330,100,"Taiwan Semiconductor Manufacturing Co., Ltd.",英文全稱,魏哲家,1987/02/21,1994/09/05,259326155210,https://www.tsmc.com,新竹科學園區力行六路8號,https://hocom.tw/Uploads/Album/199072_372048198094.jpg
2330,台灣積體電路製造股份有限公司,"Taiwan Semiconductor Manufacturing Co., Ltd.",TSMC,半導體業,,,211--美國,,TAIWAN SEMICONDUCTOR MANUFACTURING COMPANY,5088 W INNOVATION CIR,PHOENIX,AZ,85083,33.77514,-112.16055,3601820587,AZI108677,公司專項匹配-2330,100,"Taiwan Semiconductor Manufacturing Co., Ltd.",英文全稱,魏哲家,1987/02/21,1994/09/05,259326155210,https://www.tsmc.com,新竹科學園區力行六路8號,https://hocom.tw/Uploads/Album/199072_372048198094.jpg
2330,台灣積體電路製造股份有限公司,TSMC,TSMC,半導體業,,,211--美國,,TSMC - F21 - GC@ - WAREHOUSE,NO ADDRESS ON FILE,UNKNOWN,AZ,85260,33.78163,-112.1576,3601418732,AZCN93928,公司專項匹配-2330,100,TSMC,英文簡稱,魏哲家,1987/02/21,1994/09/05,259326155210,https://www.tsmc.com,新竹科學園區力行六路8號,https://hocom.tw/Uploads/Album/199072_372048198094.jpg
2330,台灣積體電路製造股份有限公司,TSMC,TSMC,半導體業,,,211--美國,,TSMC - INDUSTRIAL RECLAIMED WATER PLANT (IRWP),NO ADDRESS ON FILE,UNKNOWN,AZ,85016,33.77885,-112.18072,3601873822,AZC110436,公司專項匹配-2330,100,TSMC,英文簡稱,魏哲家,1987/02/21,1994/09/05,259326155210,https://www.tsmc.com,新竹科學園區力行六路8號,https://hocom.tw/Uploads/Album/199072_372048198094.jpg
2330,台灣積體電路製造股份有限公司,TSMC,TSMC,半導體業,,,211--美國,,TSMC - TEMPORARY ACCESS ROAD,NO ADDRESS ON FILE,UNKNOWN,AZ,85233,33.77135,-112.16204,3601585255,AZC100771,公司專項匹配-2330,100,TSMC,英文簡稱,魏哲家,1987/02/21,1994/09/05,259326155210,https://www.tsmc.com,新竹科學園區力行六路8號,https://hocom.tw/Uploads/Album/199072_372048198094.jpg
2330,台灣積體電路製造股份有限公司,TSMC,TSMC,半導體業,,,211--美國,,TSMC 69 & 230/500 KV OH,NO ADDRESS ON FILE,UNKNOWN,AZ,85282,33.78367,-112.14291,3601417827,AZCN90944,公司專項匹配-2330,100,TSMC,英文簡稱,魏哲家,1987/02/21,1994/09/05,259326155210,https://www.tsmc.com,新竹科學園區力行六路8號,https://hocom.tw/Uploads/Album/199072_372048198094.jpg
2330,台灣積體電路製造股份有限公司,TSMC,TSMC,半導體業,,,211--美國,,TSMC 69KV & 500/230KV OH,NO ADDRESS ON FILE,UNKNOWN,AZ,85254,33.78367,-112.14291,3601417858,AZCN91068,公司專項匹配-2330,100,TSMC,英文簡稱,魏哲家,1987/02/21,1994/09/05,259326155210,https://www.tsmc.com,新竹科學園區力行六路8號,https://hocom.tw/Uploads/Album/199072_372048198094.jpg
2330,台灣積體電路製造股份有限公司,TSMC,TSMC,半導體業,,,211--美國,,TSMC ARIZONA - MAIN OFFICE,NO ADDRESS ON FILE,UNKNOWN,AZ,85255,33.77494,-112.16251,3601817769,AZC108461,公司專項匹配-2330,100,TSMC,英文簡稱,魏哲家,1987/02/21,1994/09/05,259326155210,https://www.tsmc.com,新竹科學園區力行六路8號,https://hocom.tw/Uploads/Album/199072_372048198094.jpg
2330,台灣積體電路製造股份有限公司,TSMC,TSMC,半導體業,,,211--美國,,TSMC CHANNEL EXC,NO ADDRESS ON FILE,UNKNOWN,AZ,85258,33.78394,-112.17533,3601418159,AZCN92139,公司專項匹配-2330,100,TSMC,英文簡稱,魏哲家,1987/02/21,1994/09/05,259326155210,https://www.tsmc.com,新竹科學園區力行六路8號,https://hocom.tw/Uploads/Album/199072_372048198094.jpg
2330,台灣積體電路製造股份有限公司,TSMC,TSMC,半導體業,,,211--美國,,TSMC F21 - GC2 - PHASE 1,NO ADDRESS ON FILE,UNKNOWN,AZ,85383,33.77488,-112.16372,3601418338,AZCN92757,公司專項匹配-2330,100,TSMC,英文簡稱,魏哲家,1987/02/21,1994/09/05,259326155210,https://www.tsmc.com,新竹科學園區力行六路8號,https://hocom.tw/Uploads/Album/199072_372048198094.jpg
2330,台灣積體電路製造股份有限公司,TSMC,TSMC,半導體業,,,211--美國,,TSMC FAB21 - GC2 - PHASE 3,NO ADDRESS ON FILE,UNKNOWN,AZ,84106,33.77384,-112.15654,3601420865,AZCN94639,公司專項匹配-2330,100,TSMC,英文簡稱,魏哲家,1987/02/21,1994/09/05,259326155210,https://www.tsmc.com,新竹科學園區力行六路8號,https://hocom.tw/Uploads/Album/199072_372048198094.jpg
2330,台灣積體電路製造股份有限公司,TSMC,TSMC,半導體業,,,211--美國,,TSMC GROUP INC,1785 N MAIN ST,LOS ANGELES,CA,90031,34.066928,-118.221898,3600729147,CAZ423773,公司專項匹配-2330,100,TSMC,英文簡稱,魏哲家,1987/02/21,1994/09/05,259326155210,https://www.tsmc.com,新竹科學園區力行六路8號,https://hocom.tw/Uploads/Album/199072_372048198094.jpg
2330,台灣積體電路製造股份有限公司,TSMC,TSMC,半導體業,,,211--美國,,TSMC P4,5088 W INNOVATION CIR,PHOENIX,AZ,85085,33.78341,-112.15311,3601865713,AZC110242,公司專項匹配-2330,100,TSMC,英文簡稱,魏哲家,1987/02/21,1994/09/05,259326155210,https://www.tsmc.com,新竹科學園區力行六路8號,https://hocom.tw/Uploads/Album/199072_372048198094.jpg
2330,台灣積體電路製造股份有限公司,TSMC,TSMC,半導體業,,,211--美國,,TSMC PHASE 3 & 4 MASS GRADING,NO ADDRESS ON FILE,UNKNOWN,AZ,85296,33.78087,-112.16699,3601418429,AZCN93029,公司專項匹配-2330,100,TSMC,英文簡稱,魏哲家,1987/02/21,1994/09/05,259326155210,https://www.tsmc.com,新竹科學園區力行六路8號,https://hocom.tw/Uploads/Album/199072_372048198094.jpg
2330,台灣積體電路製造股份有限公司,"Taiwan Semiconductor Manufacturing Co., Ltd.",TSMC,半導體業,TSMC Development,TSMC Washington,211--美國,100.00%,TSMC WASHINGTON LLC,5509 NW PARKER ST,CAMAS,WA,98607-9299,45.5998993,-122.451012,3400001710,WAR003032,境外子公司匹配,100,TSMC WASHINGTON,境外子公司名稱,魏哲家,1987/02/21,1994/09/05,259326155210,https://www.tsmc.com,新竹科學園區力行六路8號,https://hocom.tw/Uploads/Album/199072_372048198094.jpg
2357,華碩電腦股份有限公司,ASUSTEK COMPUTER INC.,ASUSTEK,電腦及週邊設備業,華碩,ACI,211--美國,100.00%,ACI,1650 WILMA RUDOLPH BLVD.,CLARKSVILLE,TN,37040,36.55126,-87.33095,3601134948,TNR243657,境外子公司匹配,100,ACI,境外子公司名稱,施崇棠,1990/04/02,1996/11/14,7427602800,http://www.asus.com.tw,台北市北投區立德路15號,https://news.gbimonthly.com/upload/industry/industry_20220510052741_0.jpg
2359,所羅門股份有限公司,SOLOMON TECHNOLOGY CORPORATION,SOLOMON,其他電子業,,,211--美國,,SOLOMON CORPORATION,201 POLYMER DRIVE,DECATUR,TN,37322,35.489444,-84.806667,3600277898,TNR053719,MOPS英文名稱匹配,100,SOLOMON,英文簡稱,陳政隆,1990/05/07,1996/12/19,1714710520,www.solomon.com.tw,台北市內湖區行忠路四十二號6樓,https://encrypted-tbn0.gstatic.com/images?q=tbn:ANd9GcTv5v1TYriCynCxqpKaonTZX2paor90YJh7Yg&s
2360,致茂電子股份有限公司,CHROMA ATE INC.,CHROMA,其他電子業,,,211--美國,,CHROMA CORP,3900 DAYTON ROAD,MCHENRY,IL,60050-8378,42.31031,-88.27394,3600138292,ILP 329.00,MOPS英文名稱匹配,100,CHROMA,英文簡稱,黃欽明,1984/11/08,1996/12/21,4252737420,http://www.chromaate.com,桃園市龜山區文茂路88號,https://innoaward.taiwan-healthcare.org/data/cht/20220103/20220103blxla2.jpg
2367,燿華電子股份有限公司,UNITECH PRINTED CIRCUIT BOARD CORP.,UNITECH,電子零組件業,,,211--美國,,UNITECH MANUFACTURING LLC,2700 SOUTH 900 WEST,SALT LAKE CITY,UT,84119,40.71308,-111.91707,3601813812,UTPIU007P,MOPS英文名稱匹配,100,UNITECH,英文簡稱,張元銘,1984/12/31,1997/12/13,7062531750,https://www.pcbut.com.tw,新北市土城區中山路4巷3號,https://static.104.com.tw/b_profile/cust_picture/1000/5637971000/logo.jpg?v=20250428114225
2373,震旦行股份有限公司,Aurora Corporation,Aurora,其他電子業,,,211--美國,,AURORA,124 S MORGAN ST,TAMPA,FL,33602,27.9461111,-82.4538889,3400101760,FLR10OJ41,MOPS英文名稱匹配,100,AURORA,英文全稱,馬志賢,1963/07/19,1991/08/01,2362025180,www.aurora.com.tw,台北市信義路五段二號十五樓,https://www.aurora.com.cn/files/file_pool/1/0h016581229280022652/logo.png
2382,廣達電腦股份有限公司,QUANTA COMPUTER INC.,QCI,電腦及週邊設備業,,,211--美國,,QUANTA COMPUTER USA INC.#1,45275  NORTHPORT LOOP.,FREMONT,CA,94538,,,3601044312,CAW506374,MOPS英文名稱匹配,95,QUANTA COMPUTER,英文全稱,林百里,1988/05/09,1999/01/08,38626274320,www.quantatw.com,桃園市龜山區文化里文化二路188號,https://ntucace.ntu.edu.tw/institution/download.logo/sn/63/key/2024022010044365d408bbcbc82/preview/1
2382,廣達電腦股份有限公司,QUANTA COMPUTER INC.,QCI,電腦及週邊設備業,,,211--美國,,QUANTA COMPUTER USA INC.#2,45630  NORTHPORT LOOP E,FREMONT,CA,94538,37.493134,-121.953127,3601044313,CAW506375,MOPS英文名稱匹配,95,QUANTA COMPUTER,英文全稱,林百里,1988/05/09,1999/01/08,38626274320,www.quantatw.com,桃園市龜山區文化里文化二路188號,https://ntucace.ntu.edu.tw/institution/download.logo/sn/63/key/2024022010044365d408bbcbc82/preview/1
2382,廣達電腦股份有限公司,QUANTA COMPUTER INC.,QCI,電腦及週邊設備業,,,211--美國,,"QUANTA COMPUTER USA, INC.",44350 NOBEL DRIVE,FREMONT,CA,94538,37.496686,-121.976859,3600792789,CAZ491327,MOPS英文名稱匹配,95,QUANTA COMPUTER,英文全稱,林百里,1988/05/09,1999/01/08,38626274320,www.quantatw.com,桃園市龜山區文化里文化二路188號,https://ntucace.ntu.edu.tw/institution/download.logo/sn/63/key/2024022010044365d408bbcbc82/preview/1
2395,研華股份有限公司,"ADVANTECH Co., Ltd.",Advantech,電腦及週邊設備業,,,211--美國,,ADVANTECH CORPORATION,380 FAIRVIEW WAY,MILPITAS,CA,95035,37.44568,-121.91593,3601123654,CAZ511254,MOPS英文名稱匹配,100,ADVANTECH,英文全稱,劉克振,1981/09/07,1999/12/13,8643744450,www.advantech.com,台北市內湖區瑞光路26巷20弄1號,https://news.gbimonthly.com/upload/industry/industry_20210716100022_0.png
2480,敦陽科技股份有限公司,"STARK TECHNOLOGY, INC.",STARK,資訊服務業,,,211--美國,,"STARK MANUFACTURING,LLC",1300 SOUTH ELMIRA AVENUE,RUSSELLVILLE,AR,72802,35.266278,-93.10325,1200002419,ARR00C263,MOPS英文名稱匹配,100,STARK,英文簡稱,梁修宗,1993/03/24,2001/09/17,1063602910,https://www.sti.com.tw/,新竹市東大路二段83號12F之1,https://ncs2021.thu.edu.tw/wp-content/uploads/%E6%95%A6%E9%99%BD%E7%A7%91%E6%8A%80logo-01.png
2506,太平洋建設股份有限公司,"PACIFIC CONSTRUCTION CO., LTD.",PCC,建材營造,,,211--美國,,PACIFIC CONSTRUCTION INC,UNKNOWN,SCOTTSBORO,AL,0,,,1600009912,ALR166567,MOPS英文名稱匹配,100,PACIFIC CONSTRUCTION,英文全稱,柳逸義,1967/06/14,1980/02/02,3870000000,www.pacific-group.com.tw,台北市信義區光復南路495號,https://www.pacific-group.com.tw/wp-content/uploads/2020/10/%E5%A4%AA%E5%B9%B3%E6%B4%8B%E5%BB%BA%E8%A8%ADOG-share.jpg
2603,長榮海運股份有限公司,EVERGREEN MARINE CORP. (TAIWAN) LTD.,EMC,航運業,長榮海運(股)公司,Everport Terminal Services Inc.,211--美國,94.43%,EVERPORT TERMINAL SERVICES,5190 7TH ST,OAKLAND,CA,94607,37.8063,-122.33792,3600734727,CAZ469085,境外子公司匹配,100,EVERPORT TERMINAL SERVICES,境外子公司名稱,張衍義,1968/09/25,1987/09/21,21650429960,www.evergreen-marine.com,台北市中山區民生東路二段166號,https://encrypted-tbn0.gstatic.com/images?q=tbn:ANd9GcSiXgjcLaeDME3lwc0W8JdXRDpOX9BTIiWfaw&s
2607,長榮國際儲運股份有限公司,EVERGREEN INTERNATIONAL STORAGE & TRANSPORT,EITC,航運業,,,211--美國,,"EVERGREEN TRANSPORT, LLC",8278 HIGHWAY 25,CALERA,AL,35040,33.092801,-86.792014,1600003204,ALG140006,MOPS英文名稱匹配,95,EVERGREEN STORAGE TRANSPORT,英文全稱,邱顯育,1973/10/05,1990/12/14,5335705470,www.evergreen-eitc.com.tw,桃園市桃園區經國路899號,https://encrypted-tbn0.gstatic.com/images?q=tbn:ANd9GcRj48Y0NtBhrHbgCYKpIvcv1Aw_ElzzxPW56g&s
2610,中華航空股份有限公司,China Airlines Ltd.,CAL,航運業,,,211--美國,,CHINA AIRLINES LTD,4600 POSTMARK DRIVE NB202,ANCHORAGE,AK,99502,61.1814,-149.993,3601581251,AKNOEA098,MOPS英文名稱匹配,100,CHINA AIRLINES,英文全稱,高星潢,1959/09/07,1993/02/26,60839235590,http://www.china-airlines.com,桃園市大園區航站南路一號,https://alumnus.pccu.edu.tw/var/file/264/1264/img/342231256.jpg
2618,長榮航空股份有限公司,EVA AIRWAYS CORPORATION,EVAAIR,航運業,,,211--美國,,EVA AIRWAYS,2520 W AIRFIELD DR,GRAPEVINE,TX,76051,32.895027,-97.05994,3600967797,TXR05DS05,MOPS英文名稱匹配,100,EVA AIRWAYS,英文全稱,林寶水,1989/04/07,2001/09/17,54004443350,www.evaair.com,桃園市蘆竹區新南路一段376號,https://encrypted-tbn0.gstatic.com/images?q=tbn:ANd9GcQfUiOZDzECUVzpadDwlRMEjjJB1OawZK1LsA&s
2637,慧洋海運股份有限公司,"Wisdom Marine Lines Co., Limited",WISDOM,航運業,,,211--美國,,WISDOM 3,13710 MERCURY DRIVE,LAREDO,TX,78045,27.4152,-99.2757,3601562209,TXR1530OG,MOPS英文名稱匹配,95,WISDOM,英文簡稱,藍俊昇,2008/10/21,2010/12/01,7464091990,www.wisdomlines.com.tw,"Windward 3,Regatta Office Park,PO Box 1350,Grand Cayman KY1",https://encrypted-tbn0.gstatic.com/images?q=tbn:ANd9GcRNRroWRor-Zae7ZPpArbs0IrbunxsFMaZhlQkVGuCK5uaGOrNdMUPCrdeCRWd32l3WSQk&usqp=CAU
2723,開曼美食達人股份有限公司,Gourmet Master Co. Ltd.,Gourmet,觀光餐旅,本 公 司,"Perfect 85 Degrees C, Inc.",211--美國,100.00%,PERFECT 85 DEGREES C INC,1415 MOONSTONE ST,BREA,CA,92821,33.92228,-117.92074,3600736432,CAZ485516,境外子公司匹配,100,PERFECT 85 DEGREES C,境外子公司名稱,吳政學,2008/09/26,2010/11/22,1800000000,http://www.85cafe.com,台中市南屯區工業23路35號,https://www.moneydj.com/kmdj/GetWikiFile.axd?file=217fb84c-437e-4c64-9a74-47415b028298/2723.gif
2752,豆府股份有限公司,"Tofu Restaurant Co., Ltd.",TOFU,觀光餐旅,,,211--美國,,TO-FU RESTAURANT,7152 JERICHO TURNPIKE,SMITHTOWN,NY,11725,40.8425,-73.284444,400032963,NY0222186,MOPS英文名稱匹配,97,TOFU RESTAURANT,英文全稱,吳柏勳,2008/01/23,,266938610,https://www.tofuglobal.com/tw/home.html,台北市中山區民權東路二段42號4樓,https://www.tofuglobal.com/images/logo.jpg
3004,豐達科技股份有限公司(原宏達),National Aerospace Fasteners Corporation,NAFCO,鋼鐵工業,,,211--美國,,NAFCO,1540 COUNTY ROAD 222,CULLMAN,AL,35057,34.131,-86.8794,3601465866,ALR10C2XB,MOPS英文名稱匹配,100,NAFCO,英文簡稱,蔡豐賜,1997/10/14,2002/02/25,556850550,http://www.nafco.com.tw,桃園市平鎮區太平東路5號,https://www.nafco.com.tw/wp-content/uploads/2021/09/NAFCO-removebg-preview.png
3085,台鋼新零售股份有限公司,"NEWRETAIL CO., LTD",NEWRETAIL,數位雲端,,,211--美國,,NEW RETAIL,TAKE 45 SOUTH GET OFF AT THE WASHINGTON GO UP TO T,HOUSTON,TX,77007,29.78246,-95.4356,3601151625,TXR1507AW,MOPS英文名稱匹配,95,NEWRETAIL,英文全稱,李雲琴,1994/09/01,,690192880,http://www.newretail.com.tw/,台北市內湖區新湖一路128巷15號6樓,https://play-lh.googleusercontent.com/18YcBg4GsDCqxkAm9-MZemqZMAQK94D5rrG-nfU6gzyPOfsIiD9jjn8TzFlkrbXOsQ=w600-h300-pc0xffffff-pd
3138,耀登科技股份有限公司,Auden Techno Corp.,Auden,通信網路業,,,211--美國,,AUDEN,712 HERLONG AVENUE,CITY OF ROCK HILL,SC,29732,34.9620051,-81.036509,3601788912,SCR10Z8AJ,MOPS英文名稱匹配,100,AUDEN,英文簡稱,張玉斌,1990/02/10,2020/12/11,503103630,www.auden.com.tw,(334)桃園市八德區和平路772巷19號,https://www.auden.com.tw/wp-content/uploads/2019/02/logo-%E8%80%80%E7%99%BB%E9%9B%86%E5%9C%982.png
3162,精確實業股份有限公司,UNITED ALLOY-TECH COMPANY,UAT,電機機械,,,211--美國,,UNITED ALLOY,1721 8TH ST,SEGUIN,TX,78155-2554,29.3516,-97.5831,3601166663,TXR1543BK,MOPS英文名稱匹配,95,UNITED ALLOY TECH,英文全稱,胡白莎,1991/11/25,,1302411120,www.al-alloy.com.tw,桃園市新屋區社子里二鄰中興路938號,https://encrypted-tbn0.gstatic.com/images?q=tbn:ANd9GcRjV3hD9j9rgzCvGxZ9qZsGdQharwHAJhV8iQ&s
3260,威剛科技股份有限公司,"ADATA Technology Co., Ltd.",ADATA,半導體業,威剛科技股份有限公司,"ADATA TECHNOLOGY (U.S.A.) CO., LTD.",211--美國,100.00%,ADATA TECHNOLOGY USA CO LTD,880 COLUMBIA ST,BREA,CA,92821,,,3601282584,CAW534082,境外子公司匹配,95,ADATA TECHNOLOGY U,境外子公司名稱,陳立白,2001/05/04,,3257856480,www.adata.com,台北市內湖區潭美街533號25樓,https://www.adata.com/statics/csr/tw/_nuxt/img/ADATA_logo.0665129.png
3294,英濟股份有限公司,Megaforce Company Limited,Megaforce,電子零組件業,,,211--美國,,MEGAFORCE CORPORATION,2035  O'TOOLE AVE.,SAN JOSE,CA,95131,37.388469,-121.906218,3601048053,CAW506787,MOPS英文名稱匹配,100,MEGAFORCE,英文全稱,徐文麟,1991/10/15,,1320159190,www.megaforce.com.tw,新北市中和區建八路16號17樓之4,https://encrypted-tbn0.gstatic.com/images?q=tbn:ANd9GcT3K-FMysgD6Zdx2fIJ5QOYSc2ZTEXZivZyoQ&s
3356,奇偶科技股份有限公司,GeoVision Inc.,GeoVision,光電業,奇偶科技股份有限公司,"USA Vision Systems, Inc.",211--美國,100.00%,VISION SYSTEMS INC,1895 GILLESPIE WY,EL CAJON,CA,92020,32.82158,-116.98252,3600727623,CAZ343507,境外子公司匹配,95,USA VISION SYSTEMS,境外子公司名稱,戴光正,1998/02/03,2005/03/28,799416720,https://www.geovision.com.tw,台北市內湖區內湖路一段246號9樓,https://www.southbiz.com.tw/Content/Files/Article/d602f9a40cb04d4298a0fa50f9821929.jpg
3357,西北臺慶科技股份有限公司,"TAI-TECH Advanced Electronics Co.,Ltd.",TAI-TECH,電子零組件業,,,211--美國,,ADVANCED ELECTRONICS,112 E BEAUFORT,NORMAL,IL,61761,40.509463,-88.98372,800003458,ILP 173.00,MOPS英文名稱匹配,95,TAI TECH ADVANCED ELECTRONICS,英文全稱,謝明諺,1992/11/02,,1020348810,http://www.tai-tech.com.tw,326桃園市楊梅區幼四路1號,https://www.tai-tech.com.tw/images/275678
3380,明泰科技股份有限公司,Alpha Networks Inc.,Alpha,通信網路業,明泰科技公司,ATS,211--美國,100.00%,ATS INC,2785 GOODRICK AVE,RICHMOND,CA,0,37.97321,-122.3668,3600738670,CAW448015,境外子公司匹配,100,ATS,境外子公司名稱,黃文芳,2003/09/04,2004/12/20,5417184600,www.alphanetworks.com,新竹科學園區新竹市力行七路8號,https://www.yihkeh-pizza.com.tw/img/firm_logo/yikehcom_197.jpg?1504518971
3594,磐儀科技股份有限公司,ARBOR Technology Corp.,ARBOR,電腦及週邊設備業,,,211--美國,,ARBOR 1,NORTH WEST CORNER OF MIDLAND AND USTICK,CALDWELL,ID,83687,43.639,-116.5961,3601024487,IDR1001KJ,MOPS英文名稱匹配,95,ARBOR,英文簡稱,李明,1993/10/19,,959483580,www.arbor-technology.com,新北市中和區中正路700號10樓,https://assets.kktix.io/upload_images/41719/LOGO-1_original.png
3594,磐儀科技股份有限公司,ARBOR Technology Corp.,ARBOR,電腦及週邊設備業,,,211--美國,,ARBOR 4,2929 W NAVIGATOR DR. STE. 400,MERIDIAN,ID,83642,43.63798,-116.60161,3601343976,IDR10C01S,MOPS英文名稱匹配,95,ARBOR,英文簡稱,李明,1993/10/19,,959483580,www.arbor-technology.com,新北市中和區中正路700號10樓,https://assets.kktix.io/upload_images/41719/LOGO-1_original.png
3594,磐儀科技股份有限公司,ARBOR Technology Corp.,ARBOR,電腦及週邊設備業,,,211--美國,,ARBOR 5,18037 MIDLAND BLVD,NAMPA,ID,83687,43.63608,-116.59623,3601393389,IDR10C083,MOPS英文名稱匹配,95,ARBOR,英文簡稱,李明,1993/10/19,,959483580,www.arbor-technology.com,新北市中和區中正路700號10樓,https://assets.kktix.io/upload_images/41719/LOGO-1_original.png
3597,映興電子股份有限公司,Avertronics Inc.,AVI,電子零組件業,映興電子股份有限公司,AVERTRONICS (USA) INC.,211--美國,100.00%,AVERTRONICS USA INC,1388 E FIFTH ST,ONTARIO,CA,91764,34.08086,-117.6256,3601074307,CAZ507201,境外子公司匹配,100,AVERTRONICS USA,境外子公司名稱,賴柄源,1986/11/29,,392364400,http://www.avertronics.com,台中市南屯區工業區19路10號,https://encrypted-tbn0.gstatic.com/images?q=tbn:ANd9GcQA4esSRWQuqPitf2h3MGPpvuwvhLE3FF1ThQ&s
3706,神達控股股份有限公司,MiTAC Holdings Corporation,MHC,電腦及週邊設備業,神雲科技(股)公司,MiTAC Information Systems Corp.,211--美國,100.00%,MITAC INFORMATION SYSTEMS CORPORATION,39889 EUREKA DRIVE,NEWARK,CA,94560,37.50811,-122.00074,3600735675,CAZ478291,境外子公司匹配,100,MITAC INFORMATION SYSTEMS,境外子公司名稱,苗豐強,2013/09/12,2013/09/12,12065567890,www.mitac.com,桃園市龜山區文化二路202號,https://cimg.cnyes.cool/prod/news/5726146/l/a0d3ae36236fad9961e11d06a53df1c5.jpg
4104,佳醫健康事業股份有限公司,"EXCELSIOR MEDICAL CO.,LTD",EXCELSIOR,生技醫療業,,,211--美國,,EXCELSIOR SPRINGS MEDICAL,1700 HOSPITAL DR,EXCELSIOR SPRIN,MO,64024,39.3630829,-94.240167,2400012808,MOR10B027,MOPS英文名稱匹配,95,EXCELSIOR MEDICAL,英文全稱,傅輝東,1988/03/15,2007/12/31,1633975770,www.excelsiormedical.com.tw,新北市中和區中正路880號17樓,https://news.gbimonthly.com/upload/industry/industry_20200722122515_0.png
4419,皇家國際美食股份有限公司,"King House CO., Ltd.",KH,觀光餐旅,,,211--美國,,KING HOUSE SITE,"BLOODY RUN RD., LEWIS COUNTY",JANE LEW,WV,26378,39.0683,-80.365,3601731781,WVR112712,MOPS英文名稱匹配,100,KING HOUSE,英文全稱,吳美慧,1991/09/07,,1691631330,www.tsgkh.com.tw/,臺南市安平區永華路2段248號15樓之6,https://www.tsgkh.com.tw/wp-content/uploads/2023/06/%E7%9A%87%E5%AE%B6%E7%BE%8E%E9%A3%9F%E5%AD%97%E6%A8%A3%E6%99%AE%E9%80%9A%E7%89%88-fotor-bg-remover-20240910154447.png
4513,福裕事業股份有限公司,"FALCON MACHINE TOOLS CO.,LTD",FALCON,電機機械,,,211--美國,,FALCON,335 FALCON RIDGE DR,FAYETTEVILLE,GA,30214,33.492542,-84.52228,3601557802,GAR393CCB,MOPS英文名稱匹配,100,FALCON,英文簡稱,林聰麟,1978/04/13,,1143619210,www.chevaliertw.com,彰化縣伸港鄉興工路34號,https://encrypted-tbn0.gstatic.com/images?q=tbn:ANd9GcTYRboQNKqW0oBUUgbGbRu9VtIcEFnyT5vS7w&s
4523,永彰科技股份有限公司,"Everbrite Technology Co., Ltd.",Everbrite,電機機械,,,211--美國,,EVERBRITE LLC,627 E 30TH ST,BUENA VISTA,VA,24416,37.743893,-79.334428,3601252845,VAR051324,MOPS英文名稱匹配,100,EVERBRITE,英文簡稱,顏明宏,1987/05/04,,649490000,www.everbrite.com.tw,桃園市中壢區青埔路二段111號11樓,https://encrypted-tbn0.gstatic.com/images?q=tbn:ANd9GcTucjyL7hS1tTtLMbfnF1EruHmndf6sYWKDeg&s
4534,慶騰精密科技股份有限公司,"Trinity Precision Technology Co., Ltd.",trinity,電機機械,,,211--美國,,TRINITY 35,17312 100TH ST NE,GRANITE FALLS,WA,98252,48.0848312,-121.998322,3601373757,WAR310477,MOPS英文名稱匹配,95,TRINITY,英文簡稱,王瑞甫,1993/02/23,,867889480,www.trinity-ptc.com,苗栗縣頭份市中華路487巷20號,https://images.1111.com.tw/oad/48727615.jpg
4534,慶騰精密科技股份有限公司,"Trinity Precision Technology Co., Ltd.",trinity,電機機械,,,211--美國,,TRINITY 85,7375 GRAHAM ROAD,SOUTH FULTON,GA,30213,33.558328,-84.541745,3600880046,GAR153C63,MOPS英文名稱匹配,95,TRINITY,英文簡稱,王瑞甫,1993/02/23,,867889480,www.trinity-ptc.com,苗栗縣頭份市中華路487巷20號,https://images.1111.com.tw/oad/48727615.jpg
4534,慶騰精密科技股份有限公司,"Trinity Precision Technology Co., Ltd.",trinity,電機機械,,,211--美國,,TRINITY MANUFACTURING CO INC,11 EV HOGAN DR,HAMLET,NC,28345,34.920833,-79.670833,3400013708,NCS000233,MOPS英文名稱匹配,100,TRINITY,英文簡稱,王瑞甫,1993/02/23,,867889480,www.trinity-ptc.com,苗栗縣頭份市中華路487巷20號,https://images.1111.com.tw/oad/48727615.jpg
4538,大詠城機械股份有限公司,"WINSON Machinery  Co., LTD.",WINSON,電機機械,,,211--美國,,WINSTON MACHINERY CO INC,351 COUNTY ROAD 356,LYNN,AL,35575,34.051944,-87.569167,1600003157,ALG120502,MOPS英文名稱匹配,97,WINSON MACHINERY,英文全稱,謝順民,1980/01/10,,587729910,www.wsmc.com.tw,(50544)彰化縣鹿港鎮鹿工南六路23號,https://www.mtb2b.tw/storage/logos/aeab46f2c000.png
4702,中美聯合實業股份有限公司,"ALLIED INDUSTRIAL CORP.,LTD.",ALLIED,居家生活,,,211--美國,,ALLIED,30 MARTIN STREET,CUMBERLAND,RI,2864,41.927379,-71.426116,3601607782,RIRNE0419,MOPS英文名稱匹配,100,ALLIED,英文簡稱,王宣懿,1964/01/09,,723332000,http://www.aicgroup.com.tw,台北市大安區敦化南路二段七十六號十二樓,https://encrypted-tbn0.gstatic.com/images?q=tbn:ANd9GcQPtFIDgGMVqBsWouPtXBxkAa7OE_R1SPf9Zw&s
4737,華廣生技股份有限公司,BIONIME CORPORATION,BIONIME,生技醫療業,本公司,Bionime USA Corporation,211--美國,100.00%,BIONIME USA CORPORATION,1450 E SPRUCE STREET,ONTARIO,CA,91761,34.03546,-117.62154,3600735251,CAZ474070,境外子公司匹配,100,BIONIME USA,境外子公司名稱,黃椿木,2003/04/14,2010/12/23,610883940,www.bionime.com,台中市南區大慶街二段100號,https://expo.taiwan-healthcare.org/data/cht/20230726/20230726bh1tgc.png
4915,致伸科技股份有限公司,Primax Electronics Ltd.,Primax,電子零組件業,Primax Tech.,Polaris,211--美國,100.00%,LA POLARIS INC,3041 E WALKING BEAM PL,BREA,CA,92821,,,3601280937,CAW533825,境外子公司匹配,95,POLARIS,境外子公司名稱,潘永中,2006/03/20,2012/10/05,4711748240,www.primax.com.tw,台北市內湖區瑞光路669號,https://blog.104.com.tw/wp-content/uploads/2023/03/16152951/018.jpg
4915,致伸科技股份有限公司,Primax Electronics Ltd.,Primax,電子零組件業,Primax Tech.,Polaris,211--美國,100.00%,POLARIS,32330 W 213TH ST,EDGERTON,KS,66021,38.74197,-94.97089,3601284308,KSR116203,境外子公司匹配,100,POLARIS,境外子公司名稱,潘永中,2006/03/20,2012/10/05,4711748240,www.primax.com.tw,台北市內湖區瑞光路669號,https://blog.104.com.tw/wp-content/uploads/2023/03/16152951/018.jpg
4991,環宇通訊半導體控股股份有限公司,"GCS Holdings, Inc.",GCS,半導體業,美國環宇通訊半導體有限公司,"D-Tech Optoelectronics, Inc.",211--美國,0.00%,DTECH OPTOELECTRONICS,18062 ROWLAND STREET,INDUSTRY,CA,91748,34.000869,-117.909142,3600732810,CAZ458854,境外子公司匹配,98,D TECH OPTOELECTRONICS,境外子公司名稱,黃大倫,2010/11/30,,1138176680,http://gcsincorp.com,"One Nexus Way, Camana Bay, Grand Cayman, KY1-9005, Cayman",https://encrypted-tbn0.gstatic.com/images?q=tbn:ANd9GcSq8qPEGxYQflsfXzL9eJt8POcE0PFR3euAtg&s
5009,榮剛材料科技股份有限公司,GLORIA MATERIAL TECHNOLOGY CORP,GMTC,鋼鐵工業,榮剛材料科技股份有限公司,"ALLOY TOOL STEEL, INC.",211--美國,100.00%,ALLOY TOOL STEEL INC,13525 E FREEWAY DR,SANTA FE SPRINGS,CA,90670,33.89283,-118.04348,3600731890,CAZ451490,境外子公司匹配,100,ALLOY TOOL STEEL,境外子公司名稱,王炯棻,1993/03/19,,6024711970,www.gmtc.com.tw,台南市新營區新中路35號(總部地址:台南市柳營區工二路10號),https://encrypted-tbn0.gstatic.com/images?q=tbn:ANd9GcRLaUU6WzrCsccLZN5pPX6bYB-bnqsaKPjClw&s
5351,鈺創科技股份有限公司,"Etron Technology, Inc.",Etron,半導體業,,,211--美國,,ETRON CORPORATION,UNKNOWN,,MD,0,39.297816,-77.333263,3289799,MDG912999,MOPS英文名稱匹配,100,ETRON,英文簡稱,盧超群,1991/02/01,,3255957810,https://www.etron.com,新竹市科學園區科技五路六號,https://images.1111.com.tw/oad/2787443.jpg
5460,同協電子股份有限公司,MUSTANG INDUSTRIAL CORP.,MUSTANG,電子零組件業,,,211--美國,,CT MUSTANG,RIVER STREET,BRIDGEPORT,CT,6604,41.19606,-73.18926,600045067,CTU005130,MOPS英文名稱匹配,95,MUSTANG,英文簡稱,劉定泮,1972/12/14,,587781300,www.mustang-group.com,新北市新莊區民安路429巷1號,https://encrypted-tbn0.gstatic.com/images?q=tbn:ANd9GcROQCfAdwKNJ68OZIaQfN54FrtXHWH6VqY-0g&s
5460,同協電子股份有限公司,MUSTANG INDUSTRIAL CORP.,MUSTANG,電子零組件業,,,211--美國,,MUSTANG,48809 AL HIGHWAY 277,BRIDGEPORT,AL,35740,34.9192,-85.744,3600813020,ALR10BCYS,MOPS英文名稱匹配,100,MUSTANG,英文簡稱,劉定泮,1972/12/14,,587781300,www.mustang-group.com,新北市新莊區民安路429巷1號,https://encrypted-tbn0.gstatic.com/images?q=tbn:ANd9GcROQCfAdwKNJ68OZIaQfN54FrtXHWH6VqY-0g&s
6120,達運精密工業股份有限公司,DARWIN PRECISIONS CORPORATION,DARWIN,光電業,,,211--美國,,DARWIN,UNKNOWN,DARWIN,MN,0,,,2400058479,MNG580150,MOPS英文名稱匹配,100,DARWIN,英文簡稱,蔡國新,1989/10/13,2006/09/13,5989996020,www.darwinprecisions.com,新竹縣湖口鄉光復北路20-1號,https://www.darwinprecisions.com/data/history/cover/1642042129161371490.jpg
6152,百一電子股份有限公司,PRIME ELECTRONICS AND SATELLITICS INCORPORAT,PRIME,通信網路業,,,211--美國,,"PRIME, INC",205 O'LEARY ROAD,PORT WENTWORTH,GA,31407,32.196486,-81.189387,600012615,GAU050264,MOPS英文名稱匹配,100,PRIME,英文簡稱,許錦輝,1995/06/12,2009/12/08,1677384630,www.pesi.com.tw,桃園市中壢區自強一路3號,https://encrypted-tbn0.gstatic.com/images?q=tbn:ANd9GcQ1keY8RlsXihiDlx9SXtE-etYXU5CRwdH-HQ&s
6209,今國光學工業股份有限公司,"KINKO OPTICAL CO.,LTD.",KINKO,光電業,,,211--美國,,"KINKO, LLC",27343 FROST RD,LIVINGSTON,LA,70454,30.432121,-90.741897,1600016224,LAG532858,MOPS英文名稱匹配,100,KINKO,英文簡稱,陳慶棋,1980/06/19,2004/11/08,1744241710,www.kinko-optical.com,台中市梧棲區向上路九段562巷91號,https://encrypted-tbn0.gstatic.com/images?q=tbn:ANd9GcQfXkT1Z0ie4RB2_EkwSaB3shGh_aO5W1bLpQ&s
6221,晉泰科技股份有限公司,"Genesis Technology, Inc.",Genesis,資訊服務業,,,211--美國,,GENESIS 1,2400 BREEDING DRIVE,HARTSELLE,AL,35640,34.473603,-86.958814,3600704654,ALR10B876,MOPS英文名稱匹配,95,GENESIS,英文簡稱,昇鋒投資股份有限公司,1994/06/24,,1248823750,https://www.genesis.com.tw/,新竹市光復路二段289號7F,https://ittms-cdn.ittms.com.tw/Images/C000507/member-company-logo/631/20251246R2SErbS30h081147.png
6221,晉泰科技股份有限公司,"Genesis Technology, Inc.",Genesis,資訊服務業,,,211--美國,,GENESIS INC,301 WEST CENTRAL AVENUE,ROSELLE,IL,60172,41.983172,-88.089339,1000000342,ILR10J664,MOPS英文名稱匹配,100,GENESIS,英文簡稱,昇鋒投資股份有限公司,1994/06/24,,1248823750,https://www.genesis.com.tw/,新竹市光復路二段289號7F,https://ittms-cdn.ittms.com.tw/Images/C000507/member-company-logo/631/20251246R2SErbS30h081147.png
6239,力成科技股份有限公司,Powertech Technology Inc.,PTI,半導體業,,,211--美國,,POWERTECH INC,,,,,,,3600846061,NJG165085,境外子公司匹配,95,POWERTECH,英文全稱,蔡篤恭,1997/05/15,2004/11/08,7591466340,https://www.pti.com.tw/,新竹縣湖口鄉新竹工業區大同路10號,https://upload.wikimedia.org/wikipedia/zh/thumb/1/13/PTI-Logo.jpg/250px-PTI-Logo.jpg
6276,安鈦克科技股份有限公司,Antec Inc.,Antec,電腦及週邊設備業,,,211--美國,,ANTEC MFG.,ROUTE 30 WEST,ROCK FALLS,IL,61071-0800,41.771198,-89.729301,3276716,ILP 114.00,MOPS英文名稱匹配,100,ANTEC,英文全稱,李益昌,1978/10/21,,220430000,http://www.antec.com,台北市內湖區洲子街107號8樓,https://storage.googleapis.com/www.taiwantradeshow.com.tw/exhibitor-logo/202503/T-37072848.jpg
6472,保瑞藥業股份有限公司,"Bora Pharmaceuticals Co., Ltd.",Bora,生技醫療業,保瑞藥業(股)公司,Bora Pharmaceuticals USA Inc.,211--美國,100.00%,BORA PHARMACEUTICALS,1111 SOUTH PACA STREET,BALTIMORE,MD,21230,39.27925,-76.627167,3601222854,MDR001588,境外子公司匹配,95,BORA PHARMACEUTICALS USA,境外子公司名稱,盛保熙,2007/06/12,2023/12/19,1037173950,https://bora-corp.com/,台北市內湖區瑞光路26巷36弄2號6樓,https://service.moea.gov.tw/EE514/wSite/public/Attachment/00103/f1714355121389.png
6472,保瑞藥業股份有限公司,"Bora Pharmaceuticals Co., Ltd.",Bora,生技醫療業,Upsher-Smith America LLC,"Upsher-Smith Laboratories, LLC",211--美國,100.00%,UPSHER SMITH LABORATORIES,301 S CHEROKEE ST,DENVER,CO,80223,39.70991,-104.99239,3601649257,COPIU008A,境外子公司匹配,100,UPSHER SMITH LABORATORIES,境外子公司名稱,盛保熙,2007/06/12,2023/12/19,1037173950,https://bora-corp.com/,台北市內湖區瑞光路26巷36弄2號6樓,https://service.moea.gov.tw/EE514/wSite/public/Attachment/00103/f1714355121389.png
6488,環球晶圓股份有限公司,"GlobalWafers Co., Ltd",GWC,半導體業,GWBV,GTI,211--美國,100.00%,GTI,110 EAST 4TH ROAD,OGLESBY,IL,61348,41.2906,-89.4189,3601577555,ILR10BC90,境外子公司匹配,100,GTI,境外子公司名稱,徐秀蘭,2011/10/18,,4781137250,http://www.sas-globalwafers.com,新竹科學園區新竹市工業東二路八號,https://www.sas-globalwafers.com/wp-content/uploads/2019/11/logo-1.png
6488,環球晶圓股份有限公司,"GlobalWafers Co., Ltd",GWC,半導體業,GTI,MEMC LLC,211--美國,100.00%,"MEMC, LLC",501 PEARL DR,ST. PETERS,MO,63376,38.8151354,-90.661579,2400049760,MO0000299,境外子公司匹配,100,MEMC,境外子公司名稱,徐秀蘭,2011/10/18,,4781137250,http://www.sas-globalwafers.com,新竹科學園區新竹市工業東二路八號,https://www.sas-globalwafers.com/wp-content/uploads/2019/11/logo-1.png
6496,科懋生物科技股份有限公司,Excelsior Biopharma Inc.,Excelsior,生技醫療業,,,211--美國,,EXCELSIOR EMC,986 SOUTHEAST BROAD STREET,METTER,GA,30439,32.395304,-82.041153,3601834035,GAR18B78D,MOPS英文名稱匹配,95,EXCELSIOR,英文簡稱,陳澤民,1988/07/21,,475027550,http://www.excelsiorgroup.com.tw,台北市南港區忠孝東路七段508號5樓,https://encrypted-tbn0.gstatic.com/images?q=tbn:ANd9GcQXP_rD5SIUxs7TlZ3ucHAYaWzaBZ9z_D0F0A&s
6496,科懋生物科技股份有限公司,Excelsior Biopharma Inc.,Excelsior,生技醫療業,,,211--美國,,EXCELSIOR WTP,151 OAK ST,EXCELSIOR,MN,55331,44.866667,-93.616667,2400002617,MN0041769,MOPS英文名稱匹配,95,EXCELSIOR,英文簡稱,陳澤民,1988/07/21,,475027550,http://www.excelsiorgroup.com.tw,台北市南港區忠孝東路七段508號5樓,https://encrypted-tbn0.gstatic.com/images?q=tbn:ANd9GcQXP_rD5SIUxs7TlZ3ucHAYaWzaBZ9z_D0F0A&s
6534,正瀚生技股份有限公司,"CH BIOTECH R&D CO., LTD.",CHBIO,生技醫療業,本公司,"CH BIOTECH, LLC",211--美國,100.00%,CH BIOTECH LLC,601 KETTERING DRIVE,ONTARIO,CA,91761,34.05758,-117.54404,3600736538,CAZ486999,境外子公司匹配,100,CH BIOTECH,境外子公司名稱,吳正邦,2013/11/29,2023/12/21,1028000000,www.chbio.com.tw,南投縣南投市內興里文獻路89號,https://encrypted-tbn0.gstatic.com/images?q=tbn:ANd9GcRbsIr6D12mZisFMSeVzOohB23HzEBQ3NIj0w&s
6612,應用奈米醫材科技股份有限公司,"ICARES MEDICUS, INC.",ICARES,生技醫療業,本公司,MBI,211--美國,5.00%,MBI FACILITY,S SIDE OF E 64 AVE AT MONROE ST,COMMERCE CITY,CO,80022,39.81206,-104.944917,3601526402,COR901625,境外子公司匹配,100,MBI,境外子公司名稱,樂亦宏,2011/07/14,,473840840,www.icaresmedicus.com,新竹縣竹北市生醫路2段16號4樓,https://news.gbimonthly.com/upload/industry/industry_20200730122202_0.png
6670,復盛應用科技股份有限公司,"FuSheng Precision Co., Ltd.",FSP,運動休閒,"FS-North America, Inc.","FS-Precision Tech Co., LLC.",211--美國,100.00%,FS PRECISION TECH LLC,3025 E VICTORIA ST,COMPTON,CA,90221,33.86489,-118.2077,3600726744,CAZ293043,境外子公司匹配,100,FS PRECISION TECH,境外子公司名稱,李亮箴,2010/09/14,2018/12/18,1393869730,https://www.fusheng-precision.com/,台北市中山區南京東路二段172號3樓,https://www.satcom.org.tw/storage/img/3uO8MfaA1DDuzzwMqCx2fxRdPvPqHtrdmQj4QC7S.jpg
6761,穩得實業股份有限公司,"Wendell Industrial Co., Ltd.",Wendell,電子零組件業,,,211--美國,,WENDELL,UNKNOWN,WENDELL,MN,0,46.035215,-96.10075,2400053716,MNG580153,MOPS英文名稱匹配,100,WENDELL,英文簡稱,高治宏,1979/06/27,,349558670,https://www.wendell.com.tw/zh/,新北市新店區寶橋路188號6樓及6樓之1,https://encrypted-tbn0.gstatic.com/images?q=tbn:ANd9GcTOnXc9MDoJmPAm88p2BIsOWrFnVgzHy3FArQ&s
6782,視陽光學股份有限公司,Visco Vision Inc.,VISCO,生技醫療業,,,211--美國,,"VISCO, INC.",29579 AWBREY LANE,EUGENE,OR,97402,44.1286,-123.1838,3600198775,ORR208039,MOPS英文名稱匹配,100,VISCO,英文簡稱,李重儀,1998/11/09,2022/11/28,630000000,www.viscovision.com.tw,桃園市龜山區興業街1號,https://www.viscovision.com.tw/images/logo.png
6887,寶綠特資源再生工程股份有限公司,"BORETECH Resource Recovery Engineering CO., L",BORETECH-KY,綠能環保,"RIZEN CO., LTD.","CYCLEPLUS,LLC(原名：BORETECH RESOURCE RECOVERY ENGINEERING CO., LLC)",211--美國,100.00%,BORETECH RESOURCE RECOVERY ENGINEERING LLC,1820 INDUSTRIAL DRIVE,STOCKTON,CA,95206,37.91081,-121.2505,3600731234,CAZ445267,境外子公司匹配,95,CYCLEPLUS 原名 BORETECH RESOURCE RECOVERY ENGINEERING,境外子公司名稱,歐晢文,2013/04/08,2025/03/10,741195120,https://bo-re-tech.group/,台南市柳營區工六路2號,https://encrypted-tbn0.gstatic.com/images?q=tbn:ANd9GcS0gJ6oWI-jwIDH_JSNdq3GfDXodlDO9_GQ0w&s
6957,裕慶金屬股份有限公司,"Horizon Fixture Group Co., Ltd.",Horizon,其他,裕慶金屬股份有限公司,Beeline Corp.,211--美國,100.00%,BEELINE FACILITY,11253 EAST BEELINE HIGHWAY,SCOTTSDALE,AZ,85256,33.46997,-111.837124,3600109198,AZR05I314,境外子公司匹配,100,BEELINE,境外子公司名稱,廖昭宜,2018/06/15,2024/06/25,555129500,https://www.hzfixtures.com/,南投縣南投市永豐里成功三路 122 號,https://encrypted-tbn0.gstatic.com/images?q=tbn:ANd9GcTpRACwX0AVPsYSnNMtGSQCiRCgfoGBEb46AQ&s
6957,裕慶金屬股份有限公司,"Horizon Fixture Group Co., Ltd.",Horizon,其他,,,211--美國,,HORIZON 10,5850 HORIZON PARK DR,ORLANDO,FL,32809,28.4457,-81.3849,3600797028,FLR20BR75,MOPS英文名稱匹配,95,HORIZON,英文簡稱,廖昭宜,2018/06/15,2024/06/25,555129500,https://www.hzfixtures.com/,南投縣南投市永豐里成功三路 122 號,https://encrypted-tbn0.gstatic.com/images?q=tbn:ANd9GcTpRACwX0AVPsYSnNMtGSQCiRCgfoGBEb46AQ&s
6957,裕慶金屬股份有限公司,"Horizon Fixture Group Co., Ltd.",Horizon,其他,,,211--美國,,HORIZON 11,HORIZON PARK DRIVE,ORLANDO,FL,32809,28.4456,-81.3861,3600932376,FLR20CA93,MOPS英文名稱匹配,95,HORIZON,英文簡稱,廖昭宜,2018/06/15,2024/06/25,555129500,https://www.hzfixtures.com/,南投縣南投市永豐里成功三路 122 號,https://encrypted-tbn0.gstatic.com/images?q=tbn:ANd9GcTpRACwX0AVPsYSnNMtGSQCiRCgfoGBEb46AQ&s
6957,裕慶金屬股份有限公司,"Horizon Fixture Group Co., Ltd.",Horizon,其他,,,211--美國,,HORIZON 17,7752 E. HORIZON RUN RD.,EDEN,UT,84310,41.3671,-111.7618,3601468551,UTRH05890,MOPS英文名稱匹配,95,HORIZON,英文簡稱,廖昭宜,2018/06/15,2024/06/25,555129500,https://www.hzfixtures.com/,南投縣南投市永豐里成功三路 122 號,https://encrypted-tbn0.gstatic.com/images?q=tbn:ANd9GcTpRACwX0AVPsYSnNMtGSQCiRCgfoGBEb46AQ&s
6957,裕慶金屬股份有限公司,"Horizon Fixture Group Co., Ltd.",Horizon,其他,,,211--美國,,HORIZON 3,8830 HORIZON BLVD.,ALBUQUERQUE,NM,87113,35.1887,-106.6025,3601087629,NMR10025O,MOPS英文名稱匹配,95,HORIZON,英文簡稱,廖昭宜,2018/06/15,2024/06/25,555129500,https://www.hzfixtures.com/,南投縣南投市永豐里成功三路 122 號,https://encrypted-tbn0.gstatic.com/images?q=tbn:ANd9GcTpRACwX0AVPsYSnNMtGSQCiRCgfoGBEb46AQ&s
6957,裕慶金屬股份有限公司,"Horizon Fixture Group Co., Ltd.",Horizon,其他,,,211--美國,,HORIZON 5,200 OUTLOOK POINT DR,ORLANDO,FL,32809,28.4489776,-81.3782694,3600274168,FLR20BB43,MOPS英文名稱匹配,95,HORIZON,英文簡稱,廖昭宜,2018/06/15,2024/06/25,555129500,https://www.hzfixtures.com/,南投縣南投市永豐里成功三路 122 號,https://encrypted-tbn0.gstatic.com/images?q=tbn:ANd9GcTpRACwX0AVPsYSnNMtGSQCiRCgfoGBEb46AQ&s
6957,裕慶金屬股份有限公司,"Horizon Fixture Group Co., Ltd.",Horizon,其他,,,211--美國,,HORIZON 6,8051 BEACON LAKE DR,ORLANDO,FL,32812,28.4479,-81.3783,3600932898,FLR20CG23,MOPS英文名稱匹配,95,HORIZON,英文簡稱,廖昭宜,2018/06/15,2024/06/25,555129500,https://www.hzfixtures.com/,南投縣南投市永豐里成功三路 122 號,https://encrypted-tbn0.gstatic.com/images?q=tbn:ANd9GcTpRACwX0AVPsYSnNMtGSQCiRCgfoGBEb46AQ&s
6957,裕慶金屬股份有限公司,"Horizon Fixture Group Co., Ltd.",Horizon,其他,,,211--美國,,HORIZON F6,RIVIERA ST AND E 8TH AVENUE,AURORA,CO,80018,39.729633,-104.731496,3601661313,COR423178,MOPS英文名稱匹配,95,HORIZON,英文簡稱,廖昭宜,2018/06/15,2024/06/25,555129500,https://www.hzfixtures.com/,南投縣南投市永豐里成功三路 122 號,https://encrypted-tbn0.gstatic.com/images?q=tbn:ANd9GcTpRACwX0AVPsYSnNMtGSQCiRCgfoGBEb46AQ&s
8069,元太科技工業股份有限公司,E INK HOLDINGS INC.,EIH,光電業,E Ink Netherlands B.V.,E Ink Corporation,211--美國,100.00%,E INK CORPORATION,7 GAYLORD ST.,SOUTH HADLEY,MA,1705,42.218611,-72.595,3600135516,MANOE3833,境外子公司匹配,100,E INK,境外子公司名稱,李政昊,1992/06/16,,11504762590,www.eink.com,新竹市科學園區力行一路3號,https://upload.wikimedia.org/wikipedia/zh/thumb/0/0f/E_Ink_Holdings_Logo.svg/1200px-E_Ink_Holdings_Logo.svg.png
8110,華東科技股份有限公司,"WALTON ADVANCED ENGINEERING, INC.",WALTON,半導體業,,,211--美國,,WALTON,2439 N. NECTAR WAY,SARATOGA SPRINGS,UT,84045,40.4066,-111.929,3601284833,UTRH02774,MOPS英文名稱匹配,100,WALTON,英文簡稱,焦佑衡,1995/04/06,2007/10/31,5177398760,www.walton.com.tw,高雄市前鎮區北一路18號,https://www.digitimes.com.tw/seminar/Winbond_20220112/img/logo/logo7.png
8110,華東科技股份有限公司,"WALTON ADVANCED ENGINEERING, INC.",WALTON,半導體業,,,211--美國,,WALTON (V),21 NORTH STREET,WALTON,NY,13856,42.16876,-75.12795,3600265313,NYL027154,MOPS英文名稱匹配,95,WALTON,英文簡稱,焦佑衡,1995/04/06,2007/10/31,5177398760,www.walton.com.tw,高雄市前鎮區北一路18號,https://www.digitimes.com.tw/seminar/Winbond_20220112/img/logo/logo7.png
8114,振樺電子股份有限公司,"POSIFLEX TECHNOLOGY, INC.",POSIFLEX,電腦及週邊設備業,PBM,KIA,211--美國,82.00%,KIA,UNKNOWN,UNKNOWN,KS,0,37.67976,-97.25409,3400028826,KSR108698,境外子公司匹配,100,KIA,境外子公司名稱,郭劍成,1984/08/11,2012/11/26,1075379190,https://www.posiflex.com/tw/,新北市土城區大同街23號,https://encrypted-tbn0.gstatic.com/images?q=tbn:ANd9GcRAO0rL31M-THnikCu1x3l-6_1nbJdDN7vK_mqij4m0VPDiQWlrZLowC3AhS7M3TQsBZ6k&usqp=CAU
8271,宇瞻科技股份有限公司,Apacer Technology Inc.,Apacer,半導體業,本公司,AMA,211--美國,100.00%,AMA FACILITY,11075 HWY18,AMA,LA,70031,29.936167,-90.308889,1600013553,LAG480334,境外子公司匹配,100,AMA,境外子公司名稱,陳益世,1997/04/16,2010/12/29,1287292660,www.apacer.com,新北市土城區大安里忠承路32號1樓,https://www.afastor.com/uploads/images/brand/apacer/apacer.png
8464,億豐綜合工業股份有限公司,"Nien Made Enterprise Co., Ltd.",Nien Made,居家生活,億豐綜合工業股份有限公司,"Norman International, Inc.",211--美國,100.00%,NORMAN,14152 SOUTH SUMMIT TOP LANE,HERRIMAN,UT,84096,40.4971,-112.0149,3601318215,UTRH03469,境外子公司匹配,100,NORMAN,境外子公司名稱,粘耿豪,2007/07/26,2015/12/22,2930202000,http://www.nienmade.com.tw/,臺中市西屯區市政北七路98號26樓之1,https://static.104.com.tw/b_profile/cust_picture/4000/28696894000/logo.jpg?v=20240723113354
8478,東哥企業股份有限公司,"Alexander Marine Co., Ltd.",OceanAlexander,運動休閒,Alexander Marine Enterprises Inc,Pacific Coast Yachting Services Inc,211--美國,100.00%,PACIFIC COAST YACHTING SERVICES,1115 N NORTHLAKE WAY,SEATTLE,WA,98103-8917,47.6482544,-122.34581,3400000702,WAG031053,境外子公司匹配,100,PACIFIC COAST YACHTING SERVICES,境外子公司名稱,闕慶承,1978/01/23,2017/12/11,948862760,https://oceanalexander.com/zh-hans/,高雄市前鎮區金福路1號,https://images.1111.com.tw/oad/9526118.jpg
9944,新麗企業股份有限公司,"SHINIH ENTERPRISE CO., LTD.",Shinih,其他,WORLD FURNITURE GROUP,AMERICAN FURNITURE ALLIANCE INC.,211--美國,80.00%,AMERICAN  FURNITURE ALLIANCE INC,9146 9TH STREET,RANCHO CUCAMONGA,CA,91730,34.09623,-117.60622,3600980432,CAZ502448,境外子公司匹配,100,AMERICAN FURNITURE ALLIANCE,境外子公司名稱,簡瑞瑞,1962/09/14,2002/08/26,1059081000,www.shinih.com.tw,桃園市八德區聯華街41號,https://media.licdn.com/dms/image/v2/D560BAQHQxfzpX1BKVg/company-logo_200_200/company-logo_200_200/0/1696395667663/shinih_enterprise_logo?e=2147483647&v=beta&t=Pe9lzbscx8QOBq-rm5Sl7D1v_-D_B-M0xDa0Nppb3fE
9944,新麗企業股份有限公司,"SHINIH ENTERPRISE CO., LTD.",Shinih,其他,VFT INC.,AMERICAN NONWOVEN INC.,211--美國,100.00%,AMERICAN NONWOVENS INC,9141 ARROW ROUTE,RANCHO CUCAMONGA,CA,91730,34.09823,-117.60626,3601094358,CAZ509889,境外子公司匹配,97,AMERICAN NONWOVEN,境外子公司名稱,簡瑞瑞,1962/09/14,2002/08/26,1059081000,www.shinih.com.tw,桃園市八德區聯華街41號,https://media.licdn.com/dms/image/v2/D560BAQHQxfzpX1BKVg/company-logo_200_200/company-logo_200_200/0/1696395667663/shinih_enterprise_logo?e=2147483647&v=beta&t=Pe9lzbscx8QOBq-rm5Sl7D1v_-D_B-M0xDa0Nppb3fE